{"type":"FeatureCollection","features":[{"type":"Feature","properties":{"nombre":"City of Orlando","fuente":"orlando_limites"},"geometry":{"type":"MultiPolygon","coordinates":[[[[-81.41811,28.61237],[-81.41694,28.61147],[-81.41693,28.61075],[-81.41912,28.61073],[-81.41912,28.61093],[-81.4216,28.61092],[-81.4219,28.61079],[-81.42178,28.60909],[-81.4235,28.60922],[-81.42364,28.60882],[-81.42394,28.6089],[-81.42417,28.60817],[-81.42463,28.60757],[-81.42259,28.60601],[-81.42077,28.60414],[-81.42105,28.60391],[-81.42184,28.6039],[-81.42149,28.60323],[-81.42208,28.60321],[-81.42201,28.60116],[-81.42016,28.60119],[-81.42002,28.60092],[-81.41877,28.60094],[-81.41778,28.59919],[-81.41873,28.59917],[-81.41872,28.59886],[-81.41767,28.59888],[-81.41725,28.59808],[-81.41665,28.59826],[-81.41738,28.59992],[-81.41721,28.60016],[-81.41765,28.60204],[-81.41675,28.60206],[-81.41679,28.60395],[-81.41472,28.60398],[-81.41473,28.60429],[-81.41414,28.6043],[-81.41415,28.60482],[-81.41069,28.60486],[-81.41069,28.60497],[-81.41059,28.60402],[-81.40767,28.60399],[-81.40752,28.60387],[-81.40778,28.60362],[-81.40766,28.60352],[-81.4074,28.60378],[-81.40374,28.60128],[-81.40426,28.60097],[-81.40418,28.60109],[-81.40468,28.60119],[-81.40473,28.60032],[-81.40417,28.60032],[-81.40434,28.59645],[-81.40913,28.5964],[-81.40915,28.59893],[-81.40951,28.59893],[-81.40952,28.60047],[-81.40995,28.60048],[-81.41055,28.60027],[-81.41051,28.59577],[-81.41533,28.59574],[-81.41374,28.59273],[-81.40635,28.5928],[-81.40629,28.58916],[-81.40691,28.58916],[-81.4068,28.58551],[-81.40988,28.58548],[-81.41002,28.58576],[-81.40904,28.58577],[-81.40911,28.58731],[-81.41092,28.58729],[-81.41182,28.58911],[-81.41045,28.58912],[-81.41047,28.59084],[-81.41247,28.59003],[-81.40716,28.57987],[-81.40693,28.57891],[-81.40689,28.57609],[-81.40663,28.57457],[-81.40597,28.57458],[-81.40593,28.57645],[-81.40532,28.57646],[-81.40479,28.57529],[-81.40443,28.5739],[-81.40425,28.57393],[-81.40454,28.57507],[-81.40402,28.57508],[-81.40415,28.57618],[-81.40352,28.57619],[-81.40352,28.57578],[-81.40305,28.57578],[-81.40305,28.57537],[-81.40197,28.57552],[-81.40198,28.57577],[-81.40243,28.57576],[-81.40243,28.57593],[-81.40179,28.57594],[-81.40184,28.58001],[-81.40173,28.5803],[-81.40193,28.58039],[-81.40212,28.59103],[-81.39802,28.59107],[-81.39797,28.58835],[-81.39534,28.58838],[-81.39517,28.58745],[-81.39579,28.58744],[-81.39579,28.58766],[-81.39629,28.58765],[-81.39629,28.58743],[-81.39786,28.58741],[-81.39785,28.58686],[-81.3976,28.58687],[-81.3976,28.58647],[-81.39784,28.58646],[-81.39783,28.58561],[-81.39639,28.58562],[-81.39637,28.58516],[-81.39594,28.58521],[-81.39593,28.58469],[-81.39379,28.58497],[-81.39379,28.58459],[-81.39308,28.58522],[-81.39343,28.58575],[-81.39365,28.58654],[-81.39369,28.58837],[-81.39354,28.58841],[-81.3937,28.58859],[-81.39383,28.58965],[-81.39361,28.58965],[-81.39363,28.58998],[-81.38974,28.59003],[-81.38973,28.58934],[-81.38767,28.58937],[-81.38766,28.58923],[-81.37812,28.58942],[-81.37743,28.58883],[-81.37737,28.58454],[-81.3772,28.58454],[-81.3772,28.58469],[-81.37679,28.58469],[-81.37679,28.58436],[-81.37719,28.58436],[-81.37717,28.58323],[-81.3763,28.58338],[-81.37628,28.58231],[-81.37613,28.58231],[-81.37614,28.58283],[-81.37562,28.58284],[-81.37563,28.58583],[-81.37618,28.58725],[-81.37726,28.58834],[-81.37731,28.59125],[-81.37622,28.59125],[-81.37622,28.59086],[-81.37606,28.59086],[-81.37607,28.59125],[-81.37591,28.59125],[-81.3759,28.59086],[-81.37512,28.59086],[-81.37513,28.59125],[-81.37328,28.59124],[-81.37311,28.58592],[-81.37326,28.58592],[-81.37326,28.58538],[-81.37398,28.58546],[-81.37397,28.58501],[-81.37325,28.58501],[-81.37325,28.58484],[-81.37394,28.58468],[-81.37393,28.58435],[-81.37424,28.58436],[-81.37423,28.5839],[-81.37455,28.5839],[-81.37448,28.58344],[-81.37386,28.58344],[-81.37375,28.58265],[-81.37398,28.58265],[-81.37397,28.58234],[-81.37009,28.58233],[-81.36951,28.58182],[-81.3687,28.58233],[-81.35772,28.58224],[-81.3577,28.58178],[-81.35731,28.58121],[-81.35663,28.58161],[-81.35657,28.57861],[-81.35245,28.57866],[-81.35239,28.57502],[-81.35632,28.57498],[-81.3565,28.57462],[-81.35654,28.5736],[-81.35646,28.57134],[-81.36059,28.57129],[-81.36058,28.57028],[-81.35955,28.57006],[-81.3547,28.57013],[-81.35471,28.5703],[-81.35431,28.57031],[-81.35416,28.57014],[-81.35231,28.57017],[-81.35227,28.5679],[-81.35008,28.56792],[-81.35009,28.56821],[-81.34923,28.56821],[-81.34923,28.56793],[-81.34854,28.56793],[-81.34855,28.56822],[-81.34815,28.56824],[-81.34776,28.56813],[-81.34776,28.56794],[-81.34659,28.56795],[-81.34665,28.56871],[-81.346,28.56862],[-81.34601,28.56917],[-81.34557,28.56918],[-81.34556,28.56822],[-81.34453,28.56823],[-81.34453,28.56797],[-81.3439,28.56798],[-81.34385,28.56867],[-81.3434,28.56867],[-81.34338,28.56798],[-81.33992,28.56799],[-81.34009,28.57871],[-81.33312,28.57879],[-81.3331,28.57714],[-81.33173,28.57715],[-81.33171,28.57534],[-81.3246,28.57532],[-81.32465,28.58179],[-81.31948,28.58198],[-81.31523,28.58184],[-81.31501,28.56449],[-81.31509,28.5627],[-81.3154,28.5627],[-81.31555,28.56242],[-81.31554,28.56174],[-81.31601,28.56173],[-81.31601,28.56155],[-81.31646,28.56126],[-81.31646,28.56102],[-81.3176,28.56024],[-81.31853,28.55846],[-81.32014,28.55844],[-81.32017,28.55803],[-81.32074,28.55802],[-81.32074,28.55775],[-81.32191,28.55757],[-81.32191,28.55746],[-81.3252,28.55742],[-81.3252,28.55714],[-81.32982,28.55705],[-81.32983,28.5556],[-81.32766,28.55562],[-81.32765,28.55605],[-81.32734,28.55605],[-81.32734,28.55573],[-81.32622,28.55574],[-81.32622,28.55537],[-81.32669,28.55536],[-81.32669,28.55523],[-81.32612,28.55523],[-81.32612,28.55486],[-81.32733,28.55485],[-81.32732,28.55434],[-81.32751,28.55434],[-81.32737,28.55354],[-81.31281,28.55358],[-81.31277,28.54994],[-81.31897,28.54988],[-81.31892,28.54624],[-81.31694,28.54626],[-81.31693,28.54546],[-81.3164,28.54546],[-81.31639,28.54535],[-81.31488,28.54547],[-81.31489,28.54682],[-81.31131,28.54681],[-81.31131,28.54745],[-81.31052,28.54746],[-81.31052,28.54804],[-81.30965,28.54805],[-81.30966,28.54905],[-81.30903,28.54905],[-81.30904,28.54997],[-81.30863,28.54997],[-81.30866,28.55277],[-81.30889,28.55276],[-81.30907,28.55299],[-81.30888,28.55304],[-81.30888,28.55354],[-81.3066,28.55355],[-81.30657,28.54998],[-81.30816,28.54997],[-81.30815,28.54816],[-81.30759,28.54816],[-81.3076,28.5491],[-81.30808,28.54906],[-81.30808,28.54981],[-81.30553,28.54983],[-81.30552,28.54819],[-81.30655,28.54818],[-81.30653,28.54633],[-81.30835,28.54632],[-81.30835,28.54593],[-81.30844,28.54632],[-81.30884,28.54632],[-81.30884,28.54593],[-81.30996,28.54592],[-81.30996,28.54631],[-81.31051,28.54631],[-81.31041,28.53923],[-81.29199,28.53932],[-81.29197,28.53788],[-81.29111,28.53789],[-81.29104,28.53299],[-81.28953,28.53301],[-81.28873,28.53179],[-81.28859,28.53185],[-81.28813,28.52963],[-81.28818,28.52925],[-81.28918,28.52817],[-81.28916,28.52775],[-81.28881,28.52734],[-81.28983,28.52666],[-81.2904,28.52647],[-81.29078,28.52647],[-81.29133,28.52838],[-81.29206,28.5295],[-81.29415,28.52864],[-81.29412,28.52636],[-81.29618,28.52635],[-81.29616,28.52453],[-81.298,28.52452],[-81.29796,28.5191],[-81.2967,28.51863],[-81.29665,28.51873],[-81.29768,28.51912],[-81.29768,28.51946],[-81.29784,28.51946],[-81.29787,28.52263],[-81.29526,28.52266],[-81.29526,28.52235],[-81.29422,28.52236],[-81.29421,28.52215],[-81.29409,28.52215],[-81.29406,28.51749],[-81.29382,28.5174],[-81.29377,28.51371],[-81.29196,28.5124],[-81.29195,28.51064],[-81.2908,28.5102],[-81.2896,28.5063],[-81.28597,28.50632],[-81.28574,28.50541],[-81.28611,28.50541],[-81.28618,28.50504],[-81.28567,28.50496],[-81.28959,28.50494],[-81.28958,28.50266],[-81.2963,28.50263],[-81.29628,28.49914],[-81.29526,28.49915],[-81.29524,28.49537],[-81.29575,28.49536],[-81.29576,28.49572],[-81.29616,28.49572],[-81.29616,28.49536],[-81.29729,28.49535],[-81.29731,28.49904],[-81.30506,28.499],[-81.30508,28.5026],[-81.30611,28.50259],[-81.30608,28.49527],[-81.30401,28.49529],[-81.30396,28.48796],[-81.3044,28.48796],[-81.30439,28.48626],[-81.30219,28.48627],[-81.30218,28.48385],[-81.30618,28.48392],[-81.30683,28.48374],[-81.30669,28.48324],[-81.30662,28.48078],[-81.30908,28.48078],[-81.30907,28.47696],[-81.30183,28.47701],[-81.30182,28.47517],[-81.29877,28.47519],[-81.29876,28.47336],[-81.29561,28.47338],[-81.29563,28.47712],[-81.29249,28.47713],[-81.29251,28.4808],[-81.29349,28.48079],[-81.2935,28.48186],[-81.2929,28.48187],[-81.29285,28.48245],[-81.29154,28.48246],[-81.29153,28.48172],[-81.29055,28.48173],[-81.29055,28.48114],[-81.29015,28.48114],[-81.29015,28.48071],[-81.29153,28.48081],[-81.29151,28.47714],[-81.28936,28.47716],[-81.28938,28.48074],[-81.28713,28.48076],[-81.28713,28.47969],[-81.2864,28.4797],[-81.28636,28.47893],[-81.28738,28.47892],[-81.28616,28.47779],[-81.28632,28.47804],[-81.28591,28.4784],[-81.28591,28.47894],[-81.28551,28.47894],[-81.2855,28.4775],[-81.28573,28.47741],[-81.28557,28.47702],[-81.28524,28.47674],[-81.28524,28.47527],[-81.28354,28.47528],[-81.28095,28.47294],[-81.28522,28.47292],[-81.28522,28.47249],[-81.28055,28.47251],[-81.27858,28.46983],[-81.2852,28.46988],[-81.28519,28.46668],[-81.27665,28.4667],[-81.2764,28.46618],[-81.27618,28.46618],[-81.27434,28.4634],[-81.27704,28.46342],[-81.27702,28.4587],[-81.27123,28.45869],[-81.27045,28.45752],[-81.27701,28.45752],[-81.277,28.45555],[-81.27401,28.45555],[-81.27298,28.45399],[-81.26812,28.45399],[-81.267,28.45204],[-81.26683,28.45204],[-81.26525,28.44965],[-81.26814,28.44896],[-81.26872,28.44896],[-81.26871,28.44813],[-81.26346,28.44747],[-81.26082,28.44809],[-81.26067,28.44796],[-81.26067,28.44814],[-81.25877,28.44818],[-81.25594,28.44858],[-81.25241,28.44959],[-81.25241,28.44945],[-81.25226,28.44964],[-81.25007,28.4503],[-81.2483,28.45067],[-81.2459,28.45091],[-81.24248,28.45094],[-81.23133,28.44611],[-81.23006,28.43779],[-81.22772,28.41994],[-81.22768,28.41774],[-81.22822,28.41471],[-81.24313,28.41474],[-81.24324,28.41098],[-81.24362,28.40891],[-81.24383,28.40895],[-81.24389,28.40868],[-81.24368,28.40864],[-81.24449,28.40384],[-81.2443,28.40392],[-81.24433,28.40312],[-81.24467,28.40298],[-81.24491,28.40157],[-81.24492,28.39826],[-81.24469,28.39826],[-81.24435,28.39524],[-81.2445,28.37814],[-81.24471,28.37806],[-81.24463,28.37546],[-81.24451,28.37546],[-81.24455,28.36477],[-81.24429,28.36277],[-81.24341,28.36024],[-81.24268,28.35894],[-81.24176,28.35772],[-81.23595,28.35191],[-81.23594,28.35175],[-81.23228,28.34828],[-81.24473,28.34811],[-81.29292,28.34808],[-81.29297,28.35233],[-81.28477,28.35273],[-81.28478,28.35453],[-81.29308,28.35412],[-81.29315,28.3613],[-81.29423,28.3613],[-81.29424,28.36212],[-81.30158,28.36215],[-81.30156,28.36129],[-81.30555,28.36129],[-81.30557,28.36214],[-81.30576,28.36214],[-81.3057,28.35958],[-81.3067,28.35958],[-81.30661,28.35584],[-81.3096,28.35584],[-81.30968,28.35941],[-81.30769,28.35942],[-81.30773,28.36129],[-81.30972,28.36128],[-81.30931,28.38008],[-81.30746,28.38007],[-81.30747,28.38105],[-81.30932,28.38105],[-81.30943,28.38384],[-81.30978,28.3849],[-81.3098,28.38557],[-81.31056,28.38557],[-81.31168,28.38602],[-81.31356,28.38624],[-81.31474,28.38666],[-81.32373,28.39307],[-81.32853,28.3959],[-81.33134,28.39677],[-81.33207,28.39715],[-81.33272,28.39781],[-81.33303,28.39846],[-81.3336,28.4018],[-81.33533,28.40485],[-81.33598,28.4056],[-81.34267,28.41173],[-81.34267,28.41149],[-81.33581,28.40517],[-81.3337,28.40156],[-81.33502,28.40157],[-81.33541,28.40185],[-81.34274,28.40191],[-81.35515,28.40145],[-81.35515,28.40365],[-81.37058,28.40363],[-81.37264,28.40416],[-81.3737,28.40481],[-81.3737,28.40514],[-81.37408,28.40514],[-81.37453,28.40564],[-81.37449,28.40619],[-81.37411,28.40696],[-81.37433,28.40696],[-81.374,28.41205],[-81.37307,28.41429],[-81.37288,28.41424],[-81.37165,28.41735],[-81.37155,28.41793],[-81.37354,28.41792],[-81.37241,28.42157],[-81.36838,28.42158],[-81.36839,28.42136],[-81.36616,28.42137],[-81.36616,28.42082],[-81.36569,28.42082],[-81.36551,28.42096],[-81.36551,28.42137],[-81.35957,28.42139],[-81.35957,28.42161],[-81.35069,28.4216],[-81.35024,28.42068],[-81.34767,28.41715],[-81.34767,28.41826],[-81.35001,28.42146],[-81.34869,28.42146],[-81.34845,28.42115],[-81.34769,28.42115],[-81.34769,28.42165],[-81.349,28.42165],[-81.349,28.42342],[-81.34732,28.42342],[-81.34731,28.42431],[-81.34694,28.42431],[-81.34695,28.42706],[-81.349,28.42707],[-81.34899,28.42901],[-81.35211,28.42901],[-81.35212,28.43078],[-81.35314,28.43077],[-81.35315,28.43276],[-81.35625,28.43276],[-81.35624,28.43081],[-81.3578,28.43082],[-81.35779,28.42992],[-81.35878,28.42993],[-81.35878,28.42903],[-81.35896,28.42903],[-81.35897,28.42993],[-81.35933,28.42993],[-81.35934,28.43278],[-81.36362,28.43275],[-81.36362,28.43374],[-81.36457,28.43373],[-81.36459,28.43635],[-81.36724,28.43634],[-81.36733,28.43698],[-81.36709,28.43811],[-81.36658,28.43824],[-81.36592,28.43816],[-81.36476,28.43735],[-81.36381,28.43717],[-81.3638,28.43607],[-81.36286,28.43607],[-81.36284,28.43455],[-81.35935,28.43458],[-81.35935,28.43608],[-81.35108,28.43611],[-81.3511,28.44014],[-81.347,28.44018],[-81.347,28.44117],[-81.34718,28.44298],[-81.34761,28.44366],[-81.34835,28.4443],[-81.34973,28.44466],[-81.35112,28.44437],[-81.3511,28.44958],[-81.34911,28.44985],[-81.34916,28.44825],[-81.34952,28.44738],[-81.34746,28.44733],[-81.34745,28.44606],[-81.34772,28.44599],[-81.34772,28.44574],[-81.34914,28.44535],[-81.34903,28.44523],[-81.34704,28.44578],[-81.34706,28.44976],[-81.34604,28.44979],[-81.34603,28.44749],[-81.34295,28.44751],[-81.34297,28.44981],[-81.34226,28.44999],[-81.33927,28.45002],[-81.33903,28.44981],[-81.33866,28.44981],[-81.33846,28.44999],[-81.33501,28.45028],[-81.33502,28.45173],[-81.33063,28.45177],[-81.33064,28.45358],[-81.33166,28.45437],[-81.33096,28.45519],[-81.33059,28.45605],[-81.33061,28.46036],[-81.32697,28.46038],[-81.3306,28.4604],[-81.33064,28.46696],[-81.32809,28.46697],[-81.32809,28.46774],[-81.33064,28.46773],[-81.33065,28.47093],[-81.3305,28.47093],[-81.3305,28.47138],[-81.33066,28.47138],[-81.33066,28.47167],[-81.33025,28.47167],[-81.33025,28.47184],[-81.33066,28.47184],[-81.33051,28.47321],[-81.33066,28.4732],[-81.33069,28.47868],[-81.32872,28.47869],[-81.32871,28.47687],[-81.3251,28.47689],[-81.32512,28.47979],[-81.3246,28.47993],[-81.3246,28.48046],[-81.32097,28.48048],[-81.32097,28.4787],[-81.32148,28.47869],[-81.32148,28.47691],[-81.31372,28.47694],[-81.31325,28.47699],[-81.31317,28.48044],[-81.31316,28.47695],[-81.31269,28.47695],[-81.3127,28.48052],[-81.31042,28.4804],[-81.31048,28.48793],[-81.31429,28.48792],[-81.31435,28.49694],[-81.31803,28.49691],[-81.31806,28.50067],[-81.31849,28.50067],[-81.31852,28.50624],[-81.33106,28.50615],[-81.33107,28.50799],[-81.33298,28.50798],[-81.3328,28.5117],[-81.33507,28.51151],[-81.33508,28.51274],[-81.33321,28.51276],[-81.33322,28.51335],[-81.33612,28.5132],[-81.33611,28.51146],[-81.33714,28.51146],[-81.33715,28.51319],[-81.33913,28.51318],[-81.33917,28.51845],[-81.33513,28.51848],[-81.33514,28.51933],[-81.33525,28.52181],[-81.33938,28.52178],[-81.33938,28.52238],[-81.33975,28.52237],[-81.33975,28.52272],[-81.33938,28.52272],[-81.33939,28.52411],[-81.33984,28.52411],[-81.33984,28.52368],[-81.3403,28.52368],[-81.3403,28.52388],[-81.34061,28.52388],[-81.34061,28.52367],[-81.34074,28.52367],[-81.34073,28.52237],[-81.34135,28.52236],[-81.34136,28.52324],[-81.3435,28.52324],[-81.34349,28.51907],[-81.34686,28.51904],[-81.34685,28.51773],[-81.34738,28.51773],[-81.34741,28.52217],[-81.34756,28.52217],[-81.34766,28.52194],[-81.34765,28.52055],[-81.35009,28.52054],[-81.3501,28.52312],[-81.35059,28.52311],[-81.35059,28.52399],[-81.34397,28.52408],[-81.34397,28.52367],[-81.3435,28.52367],[-81.34352,28.5243],[-81.34403,28.5243],[-81.34396,28.52599],[-81.34499,28.52598],[-81.34498,28.5255],[-81.34439,28.52551],[-81.34438,28.52431],[-81.34611,28.52422],[-81.34612,28.52474],[-81.34652,28.52474],[-81.34654,28.52597],[-81.34859,28.52595],[-81.34858,28.52502],[-81.34944,28.52502],[-81.34945,28.52594],[-81.35178,28.52593],[-81.3518,28.52728],[-81.35224,28.52728],[-81.35225,28.52767],[-81.35575,28.52764],[-81.35575,28.52641],[-81.35531,28.52641],[-81.35531,28.52628],[-81.35575,28.52627],[-81.35572,28.52399],[-81.35544,28.52399],[-81.35543,28.52372],[-81.35518,28.5237],[-81.35531,28.5237],[-81.35532,28.52292],[-81.35579,28.52292],[-81.35579,28.52241],[-81.35603,28.52241],[-81.35603,28.52225],[-81.35786,28.52224],[-81.35787,28.52359],[-81.35984,28.52361],[-81.35984,28.52045],[-81.35787,28.52046],[-81.35784,28.51876],[-81.35909,28.51876],[-81.35909,28.5195],[-81.35982,28.51949],[-81.35982,28.51936],[-81.35947,28.51936],[-81.35947,28.5192],[-81.35982,28.51919],[-81.35981,28.5173],[-81.35894,28.5173],[-81.35894,28.51678],[-81.35872,28.51678],[-81.35871,28.5163],[-81.3592,28.51628],[-81.35909,28.51544],[-81.35938,28.51544],[-81.35937,28.51516],[-81.35981,28.51515],[-81.3598,28.51488],[-81.35938,28.51488],[-81.35937,28.51444],[-81.3598,28.51444],[-81.35979,28.51416],[-81.35887,28.51403],[-81.35886,28.51358],[-81.35785,28.51358],[-81.35786,28.51397],[-81.35755,28.51398],[-81.35754,28.51368],[-81.35731,28.51368],[-81.35731,28.51347],[-81.35677,28.51348],[-81.35677,28.51415],[-81.35611,28.51416],[-81.3561,28.51374],[-81.35508,28.51375],[-81.35508,28.51329],[-81.35448,28.51329],[-81.35449,28.51362],[-81.35492,28.51361],[-81.35492,28.51375],[-81.354,28.51376],[-81.354,28.5133],[-81.35168,28.51331],[-81.35169,28.51681],[-81.34872,28.51682],[-81.34871,28.51593],[-81.34901,28.51593],[-81.34901,28.51501],[-81.35156,28.51499],[-81.35156,28.51313],[-81.35573,28.5131],[-81.35573,28.51262],[-81.35647,28.51261],[-81.35647,28.51197],[-81.35759,28.51196],[-81.3576,28.51307],[-81.35994,28.51305],[-81.35994,28.51345],[-81.36003,28.51326],[-81.36185,28.51326],[-81.36185,28.51382],[-81.36098,28.51399],[-81.36097,28.51357],[-81.36039,28.51358],[-81.3604,28.51399],[-81.35995,28.514],[-81.35996,28.51534],[-81.36087,28.5152],[-81.36087,28.51548],[-81.35997,28.51548],[-81.36,28.51669],[-81.36393,28.51665],[-81.36391,28.51527],[-81.36307,28.51528],[-81.36307,28.51547],[-81.36246,28.51547],[-81.36246,28.5152],[-81.36202,28.5152],[-81.36202,28.51506],[-81.3629,28.51506],[-81.36289,28.51486],[-81.3639,28.51486],[-81.3639,28.51459],[-81.36306,28.51459],[-81.36306,28.51433],[-81.36389,28.51432],[-81.36389,28.51406],[-81.36305,28.51407],[-81.36305,28.51377],[-81.36389,28.51376],[-81.36389,28.51354],[-81.36305,28.51366],[-81.36305,28.51353],[-81.36258,28.51353],[-81.36258,28.51323],[-81.36686,28.51318],[-81.36686,28.51349],[-81.36699,28.51349],[-81.36701,28.51576],[-81.36686,28.51604],[-81.36702,28.51669],[-81.36812,28.51668],[-81.36809,28.51314],[-81.36732,28.51315],[-81.36731,28.51125],[-81.36653,28.51126],[-81.36653,28.5108],[-81.36609,28.51081],[-81.36608,28.50964],[-81.36619,28.50988],[-81.36652,28.50977],[-81.36651,28.50938],[-81.366,28.50939],[-81.36599,28.50882],[-81.36548,28.50929],[-81.36551,28.51293],[-81.36302,28.51294],[-81.36294,28.50935],[-81.36212,28.50936],[-81.36194,28.50797],[-81.36496,28.50667],[-81.36391,28.50683],[-81.36389,28.50308],[-81.35987,28.50311],[-81.35983,28.49761],[-81.36321,28.49757],[-81.36589,28.4948],[-81.3639,28.49858],[-81.36591,28.49856],[-81.36594,28.5021],[-81.36787,28.50208],[-81.36789,28.50376],[-81.36801,28.50396],[-81.36796,28.51074],[-81.36849,28.51074],[-81.36849,28.51215],[-81.36808,28.51215],[-81.36809,28.51292],[-81.37006,28.5129],[-81.37007,28.51121],[-81.36931,28.50936],[-81.37227,28.50933],[-81.37227,28.50896],[-81.37269,28.50895],[-81.37269,28.5084],[-81.37311,28.5084],[-81.37311,28.50925],[-81.3733,28.50925],[-81.3733,28.50881],[-81.37408,28.50894],[-81.37408,28.50924],[-81.37424,28.50924],[-81.37421,28.50648],[-81.37612,28.50627],[-81.37613,28.5052],[-81.37505,28.50521],[-81.37504,28.50567],[-81.37354,28.50568],[-81.37353,28.50523],[-81.3722,28.50524],[-81.3722,28.50483],[-81.37422,28.50477],[-81.37421,28.50393],[-81.37445,28.50393],[-81.37445,28.5038],[-81.37352,28.50382],[-81.37352,28.50354],[-81.37391,28.50354],[-81.3739,28.50326],[-81.37429,28.50326],[-81.37428,28.50255],[-81.37444,28.50255],[-81.37444,28.50241],[-81.37614,28.50239],[-81.37615,28.50319],[-81.37802,28.50317],[-81.37751,28.50105],[-81.37694,28.50105],[-81.37695,28.50171],[-81.37635,28.50172],[-81.37631,28.50032],[-81.37656,28.50032],[-81.37656,28.49993],[-81.37632,28.49993],[-81.37614,28.4984],[-81.37707,28.4984],[-81.37742,28.49985],[-81.37842,28.49984],[-81.37921,28.50316],[-81.37941,28.50316],[-81.38007,28.50604],[-81.38453,28.50597],[-81.38454,28.51323],[-81.38517,28.51412],[-81.38607,28.51453],[-81.38994,28.51454],[-81.38993,28.51422],[-81.39056,28.51389],[-81.39071,28.51343],[-81.39121,28.51342],[-81.39167,28.5131],[-81.39167,28.51291],[-81.39111,28.51292],[-81.39111,28.51268],[-81.39162,28.51257],[-81.39222,28.51201],[-81.39272,28.51193],[-81.39275,28.51164],[-81.39293,28.51164],[-81.39297,28.51228],[-81.39317,28.51197],[-81.39387,28.51162],[-81.39387,28.51139],[-81.39433,28.51129],[-81.39433,28.51085],[-81.39465,28.51082],[-81.39519,28.51046],[-81.39533,28.50955],[-81.39672,28.50862],[-81.39683,28.50733],[-81.39711,28.50733],[-81.39716,28.50805],[-81.39747,28.50807],[-81.39749,28.50918],[-81.40104,28.50914],[-81.40104,28.50926],[-81.40126,28.50926],[-81.40124,28.50676],[-81.40937,28.50669],[-81.40808,28.50882],[-81.40808,28.50909],[-81.41492,28.50904],[-81.41642,28.50874],[-81.41469,28.50876],[-81.41593,28.50839],[-81.41735,28.5075],[-81.41749,28.5071],[-81.41786,28.5071],[-81.41796,28.50749],[-81.41954,28.50748],[-81.42081,28.50677],[-81.42308,28.50444],[-81.42175,28.50446],[-81.42169,28.49773],[-81.41788,28.49776],[-81.41788,28.49788],[-81.41769,28.49788],[-81.41777,28.49426],[-81.41803,28.49426],[-81.41802,28.49146],[-81.41674,28.49147],[-81.41667,28.49375],[-81.41418,28.49378],[-81.41418,28.49419],[-81.40939,28.49423],[-81.40937,28.49067],[-81.40987,28.49067],[-81.40985,28.48877],[-81.41212,28.48875],[-81.41211,28.48712],[-81.42573,28.487],[-81.42569,28.47999],[-81.43206,28.47992],[-81.43194,28.47951],[-81.43806,28.47942],[-81.43805,28.47395],[-81.4339,28.47401],[-81.4339,28.47232],[-81.44012,28.47224],[-81.44012,28.47196],[-81.43981,28.47196],[-81.4398,28.4684],[-81.43565,28.46485],[-81.42799,28.46494],[-81.42799,28.46475],[-81.41903,28.46472],[-81.42296,28.46065],[-81.42313,28.46073],[-81.42325,28.4606],[-81.42416,28.46131],[-81.42472,28.46075],[-81.42382,28.46004],[-81.42671,28.45705],[-81.43305,28.46254],[-81.43487,28.4609],[-81.43487,28.46035],[-81.43534,28.45999],[-81.4355,28.45964],[-81.43531,28.45861],[-81.43464,28.45846],[-81.43438,28.458],[-81.43509,28.45703],[-81.43478,28.45604],[-81.43579,28.45482],[-81.43608,28.45381],[-81.43703,28.45355],[-81.43702,28.4522],[-81.43666,28.45189],[-81.43663,28.45055],[-81.4412,28.45051],[-81.44121,28.4513],[-81.44203,28.4513],[-81.44213,28.46119],[-81.44255,28.46127],[-81.4504,28.46122],[-81.45031,28.44975],[-81.46264,28.44968],[-81.46264,28.44985],[-81.46468,28.44984],[-81.46466,28.44752],[-81.46594,28.44751],[-81.46556,28.44983],[-81.46671,28.44983],[-81.46666,28.45737],[-81.4744,28.4573],[-81.47472,28.45603],[-81.4748,28.4548],[-81.47722,28.45518],[-81.47747,28.45488],[-81.47745,28.45365],[-81.47964,28.45364],[-81.48113,28.45432],[-81.48115,28.45727],[-81.47909,28.45728],[-81.4791,28.46077],[-81.48117,28.46077],[-81.48118,28.4638],[-81.47753,28.46369],[-81.47753,28.46288],[-81.47659,28.46288],[-81.47659,28.46248],[-81.47563,28.46249],[-81.47563,28.46282],[-81.47507,28.46283],[-81.47507,28.46365],[-81.47577,28.46365],[-81.47577,28.46409],[-81.47508,28.46409],[-81.4751,28.46801],[-81.47914,28.46799],[-81.47916,28.47165],[-81.47899,28.47166],[-81.479,28.4722],[-81.48026,28.47245],[-81.48089,28.47235],[-81.48074,28.47308],[-81.4804,28.4735],[-81.47856,28.47412],[-81.47666,28.47513],[-81.47523,28.4752],[-81.47511,28.47507],[-81.47509,28.4788],[-81.47574,28.48081],[-81.4755,28.48088],[-81.47523,28.48064],[-81.47482,28.48062],[-81.46885,28.48277],[-81.46668,28.48304],[-81.46676,28.48643],[-81.47085,28.48644],[-81.47101,28.4901],[-81.47513,28.49009],[-81.47531,28.49739],[-81.47944,28.49737],[-81.47947,28.49947],[-81.47704,28.4983],[-81.47463,28.49739],[-81.47223,28.49741],[-81.47634,28.49892],[-81.47884,28.50009],[-81.48118,28.50152],[-81.48346,28.50322],[-81.48359,28.50453],[-81.48344,28.50454],[-81.48345,28.5047],[-81.48364,28.5047],[-81.48374,28.50493],[-81.48376,28.50561],[-81.48422,28.50561],[-81.48565,28.50802],[-81.48582,28.50857],[-81.48594,28.51319],[-81.4857,28.51438],[-81.48504,28.5156],[-81.49214,28.51554],[-81.4921,28.50971],[-81.49294,28.51037],[-81.49286,28.51044],[-81.49415,28.51157],[-81.49645,28.51402],[-81.49845,28.51574],[-81.50106,28.51747],[-81.50519,28.5196],[-81.5075,28.52125],[-81.50708,28.52205],[-81.50753,28.52263],[-81.49222,28.52277],[-81.49218,28.5192],[-81.48807,28.51923],[-81.48809,28.52106],[-81.48257,28.52111],[-81.47983,28.52197],[-81.47987,28.5276],[-81.47797,28.52754],[-81.47797,28.52768],[-81.47571,28.52852],[-81.47575,28.53393],[-81.46342,28.53404],[-81.46333,28.53268],[-81.46234,28.53269],[-81.46233,28.53213],[-81.46109,28.53214],[-81.46115,28.53361],[-81.46068,28.53361],[-81.46069,28.53399],[-81.46116,28.53399],[-81.46127,28.53692],[-81.4608,28.53693],[-81.46077,28.53782],[-81.46049,28.53784],[-81.46029,28.53784],[-81.46028,28.53732],[-81.45922,28.53734],[-81.45923,28.53785],[-81.45775,28.53785],[-81.45783,28.53589],[-81.45708,28.5359],[-81.45708,28.53504],[-81.45523,28.53505],[-81.45524,28.53582],[-81.45214,28.53584],[-81.45212,28.53501],[-81.45298,28.53501],[-81.45297,28.53421],[-81.45522,28.53419],[-81.45523,28.53397],[-81.45456,28.53398],[-81.45456,28.5341],[-81.44273,28.53431],[-81.44272,28.52862],[-81.44288,28.52862],[-81.44286,28.52807],[-81.44319,28.52801],[-81.44247,28.52801],[-81.44249,28.53431],[-81.44068,28.53433],[-81.4407,28.5324],[-81.43942,28.53241],[-81.43938,28.52783],[-81.43854,28.52783],[-81.43853,28.52708],[-81.43448,28.52708],[-81.4345,28.53447],[-81.43505,28.53447],[-81.43504,28.53523],[-81.4345,28.53523],[-81.4345,28.53616],[-81.43855,28.53611],[-81.43856,28.53443],[-81.44272,28.53439],[-81.44268,28.53988],[-81.44227,28.53989],[-81.44226,28.53917],[-81.44133,28.53927],[-81.44134,28.53991],[-81.44174,28.5399],[-81.44175,28.54163],[-81.44063,28.54165],[-81.44064,28.54261],[-81.44218,28.54258],[-81.44218,28.54312],[-81.44261,28.54313],[-81.44263,28.54484],[-81.44206,28.54499],[-81.44206,28.54475],[-81.44168,28.54475],[-81.44168,28.5439],[-81.44065,28.54391],[-81.44064,28.54346],[-81.43855,28.54348],[-81.4386,28.54605],[-81.43976,28.54572],[-81.43977,28.5464],[-81.43993,28.54643],[-81.43993,28.54624],[-81.44028,28.54624],[-81.44027,28.54562],[-81.44256,28.54525],[-81.44264,28.54649],[-81.44171,28.5465],[-81.44171,28.54702],[-81.44244,28.54701],[-81.44244,28.54668],[-81.44264,28.54668],[-81.44264,28.54707],[-81.43979,28.5471],[-81.43979,28.54792],[-81.43862,28.54792],[-81.43861,28.54744],[-81.4375,28.54744],[-81.43711,28.54632],[-81.43657,28.54653],[-81.43655,28.54545],[-81.43601,28.54545],[-81.43601,28.5453],[-81.43504,28.54531],[-81.43505,28.54546],[-81.43553,28.54546],[-81.43555,28.54687],[-81.43507,28.54702],[-81.43506,28.54659],[-81.43477,28.54659],[-81.43475,28.54574],[-81.4324,28.54575],[-81.43241,28.54655],[-81.43178,28.54623],[-81.43177,28.54535],[-81.43038,28.54537],[-81.43038,28.54491],[-81.43299,28.54489],[-81.433,28.54534],[-81.43437,28.54533],[-81.43433,28.54349],[-81.43042,28.5435],[-81.43039,28.5417],[-81.4325,28.5417],[-81.4325,28.5414],[-81.43434,28.5414],[-81.43434,28.5408],[-81.43249,28.5408],[-81.43248,28.53995],[-81.43433,28.53995],[-81.43432,28.53939],[-81.43247,28.53939],[-81.43247,28.53905],[-81.43433,28.53905],[-81.43432,28.53809],[-81.42608,28.53808],[-81.42608,28.53794],[-81.42221,28.53802],[-81.42215,28.54173],[-81.4139,28.54177],[-81.41382,28.54057],[-81.4146,28.54056],[-81.4146,28.54009],[-81.41268,28.54014],[-81.41264,28.54044],[-81.41207,28.54045],[-81.41206,28.54015],[-81.41016,28.54017],[-81.41017,28.54048],[-81.41001,28.54048],[-81.41001,28.54018],[-81.40969,28.54018],[-81.40971,28.54115],[-81.41033,28.54099],[-81.41034,28.54152],[-81.41073,28.54151],[-81.41073,28.54182],[-81.40972,28.54183],[-81.40977,28.55064],[-81.41144,28.55062],[-81.41143,28.54979],[-81.41351,28.54977],[-81.4135,28.54824],[-81.41211,28.5483],[-81.41211,28.54757],[-81.41165,28.54724],[-81.41165,28.54694],[-81.41267,28.54693],[-81.41267,28.54734],[-81.41396,28.54733],[-81.41388,28.54423],[-81.41395,28.54362],[-81.41414,28.54351],[-81.41556,28.54442],[-81.41464,28.54443],[-81.41479,28.54628],[-81.4181,28.54737],[-81.41896,28.5475],[-81.41896,28.54888],[-81.41802,28.54903],[-81.41802,28.54916],[-81.41956,28.54915],[-81.41955,28.54852],[-81.42016,28.54851],[-81.42016,28.54745],[-81.42628,28.5474],[-81.42627,28.54634],[-81.42915,28.54623],[-81.43025,28.54633],[-81.42993,28.54633],[-81.42994,28.54672],[-81.42916,28.54672],[-81.42916,28.54711],[-81.43017,28.54712],[-81.43044,28.54745],[-81.43045,28.549],[-81.43137,28.54899],[-81.4314,28.55244],[-81.43396,28.55242],[-81.43395,28.55185],[-81.43352,28.55185],[-81.43351,28.55144],[-81.43414,28.55144],[-81.43413,28.55082],[-81.43451,28.55082],[-81.43457,28.55159],[-81.43452,28.55198],[-81.43414,28.55199],[-81.43414,28.55242],[-81.44192,28.55235],[-81.44192,28.5519],[-81.4423,28.55189],[-81.4423,28.55117],[-81.44248,28.55116],[-81.44248,28.55081],[-81.44286,28.55082],[-81.44285,28.54966],[-81.44421,28.54965],[-81.44422,28.55079],[-81.44594,28.55079],[-81.44594,28.55232],[-81.44547,28.55233],[-81.44547,28.55159],[-81.44499,28.55159],[-81.44499,28.55233],[-81.44397,28.55234],[-81.44396,28.55096],[-81.44346,28.55097],[-81.44346,28.5514],[-81.44287,28.5514],[-81.44288,28.55974],[-81.43812,28.55977],[-81.43821,28.56698],[-81.43676,28.56699],[-81.43685,28.57024],[-81.43523,28.57185],[-81.43493,28.57235],[-81.43492,28.57437],[-81.4346,28.57437],[-81.43461,28.57472],[-81.43428,28.57541],[-81.43428,28.57667],[-81.43406,28.57707],[-81.43418,28.57798],[-81.43192,28.57799],[-81.43182,28.57439],[-81.4338,28.57438],[-81.4338,28.57425],[-81.43343,28.57426],[-81.43322,28.57325],[-81.43283,28.57254],[-81.43078,28.57256],[-81.43074,28.57072],[-81.4304,28.57072],[-81.43034,28.57092],[-81.42663,28.57037],[-81.42654,28.56911],[-81.42855,28.56909],[-81.42852,28.56721],[-81.43049,28.56719],[-81.43048,28.56614],[-81.42949,28.56616],[-81.4295,28.56698],[-81.42698,28.56701],[-81.42697,28.56619],[-81.42646,28.56619],[-81.42646,28.56706],[-81.4244,28.56708],[-81.42438,28.56531],[-81.42325,28.56532],[-81.42327,28.56709],[-81.41822,28.56714],[-81.42646,28.56718],[-81.42625,28.56774],[-81.4263,28.56837],[-81.42591,28.56837],[-81.42591,28.56858],[-81.42631,28.56858],[-81.42642,28.57028],[-81.42632,28.57036],[-81.42251,28.56981],[-81.42238,28.56953],[-81.42225,28.56953],[-81.42226,28.56978],[-81.41956,28.56948],[-81.41958,28.56921],[-81.41933,28.56919],[-81.41931,28.56947],[-81.41612,28.56945],[-81.41592,28.56921],[-81.41619,28.57032],[-81.41635,28.57007],[-81.41927,28.57006],[-81.41926,28.57026],[-81.41951,28.57028],[-81.41953,28.57003],[-81.42056,28.57011],[-81.42227,28.57034],[-81.42228,28.57079],[-81.42252,28.57079],[-81.42252,28.57037],[-81.43035,28.57162],[-81.43045,28.57256],[-81.42664,28.57259],[-81.42656,28.57438],[-81.42554,28.57451],[-81.42559,28.57625],[-81.42662,28.57625],[-81.42656,28.57442],[-81.43055,28.57439],[-81.4306,28.57623],[-81.42871,28.57623],[-81.42875,28.5782],[-81.4294,28.5782],[-81.42941,28.57867],[-81.4297,28.57867],[-81.42969,28.5782],[-81.43065,28.57819],[-81.43069,28.57965],[-81.42944,28.57966],[-81.42947,28.58074],[-81.43072,28.58074],[-81.43075,28.58172],[-81.43106,28.58171],[-81.43098,28.57874],[-81.4316,28.57874],[-81.43159,28.57812],[-81.44082,28.5781],[-81.44078,28.57566],[-81.44302,28.57565],[-81.44305,28.57816],[-81.44738,28.57814],[-81.44739,28.58534],[-81.44328,28.58538],[-81.44324,28.58933],[-81.44616,28.5893],[-81.44619,28.59156],[-81.4475,28.59185],[-81.44733,28.5948],[-81.44943,28.59479],[-81.44942,28.59516],[-81.45127,28.59515],[-81.45126,28.59819],[-81.44999,28.59819],[-81.45004,28.60002],[-81.45131,28.60002],[-81.45136,28.60186],[-81.4464,28.60186],[-81.44643,28.60369],[-81.44951,28.6037],[-81.44956,28.60559],[-81.45142,28.60561],[-81.45144,28.60759],[-81.44961,28.60758],[-81.44972,28.6113],[-81.45032,28.6113],[-81.44768,28.61181],[-81.44768,28.61126],[-81.44641,28.61124],[-81.44629,28.60747],[-81.4384,28.60738],[-81.43847,28.60928],[-81.43645,28.60928],[-81.43644,28.60891],[-81.43487,28.60891],[-81.43522,28.60372],[-81.43189,28.60377],[-81.43161,28.60655],[-81.43135,28.60655],[-81.43137,28.60746],[-81.43308,28.60743],[-81.43314,28.60864],[-81.43348,28.60907],[-81.43465,28.60905],[-81.43441,28.61251],[-81.43227,28.61255],[-81.43241,28.61237],[-81.43196,28.61209],[-81.43182,28.61227],[-81.43153,28.61211],[-81.43146,28.61183],[-81.42705,28.60914],[-81.42614,28.61044],[-81.4226,28.61233],[-81.42332,28.61336],[-81.42299,28.61429],[-81.42023,28.61351],[-81.41811,28.61237]],[[-81.42503,28.46221],[-81.42495,28.46214],[-81.4249,28.46219],[-81.42498,28.46225],[-81.42503,28.46221]],[[-81.44062,28.45498],[-81.44062,28.45489],[-81.44041,28.45489],[-81.44041,28.45498],[-81.44062,28.45498]],[[-81.43947,28.53802],[-81.43854,28.53804],[-81.43854,28.53807],[-81.43947,28.53806],[-81.43947,28.53802]],[[-81.26891,28.42201],[-81.26875,28.42201],[-81.26875,28.42228],[-81.26891,28.42228],[-81.26891,28.42201]],[[-81.43431,28.53557],[-81.43385,28.53557],[-81.43385,28.53572],[-81.4343,28.53572],[-81.43431,28.53557]],[[-81.4343,28.53587],[-81.43385,28.53587],[-81.43385,28.53602],[-81.4343,28.53602],[-81.4343,28.53587]],[[-81.31052,28.54722],[-81.31051,28.54691],[-81.31005,28.54692],[-81.31005,28.54722],[-81.31052,28.54722]],[[-81.46292,28.49357],[-81.46351,28.49348],[-81.46292,28.49304],[-81.46292,28.49357]],[[-81.43032,28.55327],[-81.43031,28.55286],[-81.42977,28.55286],[-81.42977,28.55327],[-81.43032,28.55327]],[[-81.41517,28.55259],[-81.41517,28.55218],[-81.41462,28.55218],[-81.41462,28.5526],[-81.41517,28.55259]],[[-81.3208,28.46341],[-81.32065,28.4634],[-81.32056,28.46404],[-81.3208,28.46446],[-81.32101,28.46586],[-81.32117,28.46586],[-81.32095,28.46442],[-81.32072,28.46402],[-81.3208,28.46341]],[[-81.40391,28.57191],[-81.4034,28.57024],[-81.40297,28.56947],[-81.40277,28.56947],[-81.40331,28.57045],[-81.40374,28.57192],[-81.40391,28.57191]],[[-81.42856,28.55537],[-81.42855,28.55469],[-81.42785,28.55469],[-81.42786,28.55538],[-81.42856,28.55537]],[[-81.41274,28.58797],[-81.41231,28.58713],[-81.41153,28.58714],[-81.41196,28.58797],[-81.41274,28.58797]],[[-81.43031,28.55245],[-81.4303,28.55157],[-81.42936,28.55158],[-81.42937,28.55245],[-81.43031,28.55245]],[[-81.42732,28.55385],[-81.4273,28.55288],[-81.42657,28.55289],[-81.4266,28.5547],[-81.42677,28.5547],[-81.42678,28.55385],[-81.42732,28.55385]],[[-81.4298,28.55512],[-81.42979,28.55468],[-81.42878,28.55468],[-81.42879,28.55537],[-81.4298,28.55536],[-81.42981,28.5556],[-81.43035,28.55559],[-81.43034,28.55511],[-81.4298,28.55512]],[[-81.43148,28.55622],[-81.43146,28.55485],[-81.43053,28.55486],[-81.43054,28.55623],[-81.43148,28.55622]],[[-81.41591,28.57627],[-81.41588,28.5754],[-81.41422,28.57541],[-81.41423,28.57632],[-81.41591,28.57627]],[[-81.42686,28.50592],[-81.42673,28.50546],[-81.42589,28.50547],[-81.42588,28.5052],[-81.42361,28.50522],[-81.42293,28.506],[-81.42589,28.50597],[-81.4259,28.50688],[-81.42636,28.50687],[-81.42699,28.50603],[-81.42686,28.50592]],[[-81.42424,28.50703],[-81.42377,28.50704],[-81.42377,28.5069],[-81.42213,28.50692],[-81.42202,28.50705],[-81.42221,28.50705],[-81.42222,28.50744],[-81.42253,28.50743],[-81.42254,28.50782],[-81.42115,28.5079],[-81.42063,28.50837],[-81.42189,28.50835],[-81.42188,28.50796],[-81.42285,28.50795],[-81.42285,28.50834],[-81.42254,28.50834],[-81.42254,28.50876],[-81.42457,28.5087],[-81.42456,28.50832],[-81.42394,28.50833],[-81.42393,28.50742],[-81.42424,28.50742],[-81.42424,28.50703]],[[-81.32558,28.46958],[-81.32557,28.46593],[-81.32454,28.46593],[-81.32455,28.46958],[-81.32558,28.46958]],[[-81.41537,28.5909],[-81.41535,28.59],[-81.4149,28.59],[-81.41461,28.58945],[-81.4146,28.58909],[-81.41484,28.58909],[-81.41484,28.58849],[-81.41331,28.58851],[-81.41331,28.5891],[-81.41255,28.58911],[-81.4135,28.59092],[-81.41537,28.5909]],[[-81.4669,28.49346],[-81.46757,28.49348],[-81.46754,28.49193],[-81.46338,28.49197],[-81.46548,28.49337],[-81.4669,28.49346]],[[-81.42781,28.49057],[-81.42779,28.48875],[-81.42677,28.48876],[-81.42675,28.48703],[-81.42573,28.48704],[-81.42575,28.49059],[-81.42781,28.49057]],[[-81.31861,28.51705],[-81.31859,28.51532],[-81.31646,28.51533],[-81.31646,28.51645],[-81.31502,28.51646],[-81.31501,28.51491],[-81.31455,28.51491],[-81.31457,28.51709],[-81.31861,28.51705]],[[-81.40744,28.5781],[-81.40743,28.57773],[-81.40806,28.57772],[-81.40805,28.57727],[-81.40856,28.57727],[-81.40848,28.57628],[-81.40829,28.57628],[-81.40827,28.57545],[-81.40851,28.57545],[-81.40857,28.57627],[-81.40909,28.57627],[-81.40913,28.57754],[-81.41001,28.57754],[-81.41007,28.57806],[-81.41002,28.57453],[-81.40802,28.57455],[-81.40803,28.57547],[-81.40772,28.57547],[-81.40772,28.57579],[-81.40753,28.57579],[-81.40754,28.57642],[-81.40774,28.57642],[-81.40774,28.57684],[-81.40758,28.57684],[-81.40758,28.57724],[-81.40718,28.57724],[-81.40719,28.5781],[-81.40744,28.5781]],[[-81.41887,28.59509],[-81.41898,28.59425],[-81.41879,28.59333],[-81.41832,28.59244],[-81.41761,28.59166],[-81.41581,28.59167],[-81.41581,28.59198],[-81.41407,28.59198],[-81.41573,28.59514],[-81.41726,28.59508],[-81.41726,28.5957],[-81.41809,28.5956],[-81.41884,28.59523],[-81.41887,28.59509]],[[-81.30998,28.50983],[-81.30992,28.50273],[-81.30611,28.50274],[-81.30612,28.50514],[-81.3055,28.50515],[-81.30572,28.50623],[-81.30613,28.50622],[-81.30616,28.50986],[-81.30998,28.50983]],[[-81.43434,28.53069],[-81.43433,28.52705],[-81.43336,28.52705],[-81.43336,28.52764],[-81.43274,28.52743],[-81.43274,28.52706],[-81.42618,28.52711],[-81.4262,28.5307],[-81.43434,28.53069]],[[-81.41535,28.58643],[-81.41534,28.58552],[-81.41326,28.58537],[-81.41321,28.58371],[-81.41228,28.58372],[-81.4124,28.58355],[-81.41233,28.5809],[-81.41342,28.58085],[-81.41393,28.58114],[-81.41419,28.5816],[-81.41429,28.58001],[-81.41523,28.58001],[-81.41523,28.57974],[-81.41051,28.57976],[-81.41047,28.57828],[-81.40719,28.57832],[-81.40726,28.57921],[-81.4076,28.5802],[-81.40997,28.58457],[-81.41016,28.58457],[-81.41028,28.5848],[-81.41084,28.5848],[-81.41091,28.58555],[-81.41314,28.58554],[-81.41377,28.58698],[-81.41503,28.58699],[-81.41502,28.58644],[-81.41535,28.58643]],[[-81.32518,28.56068],[-81.3252,28.55769],[-81.32258,28.55772],[-81.32258,28.55786],[-81.32159,28.55801],[-81.32159,28.55815],[-81.32117,28.55815],[-81.32117,28.55829],[-81.32059,28.5583],[-81.32059,28.55857],[-81.32026,28.55858],[-81.32017,28.55872],[-81.32017,28.55988],[-81.32029,28.56],[-81.31965,28.56049],[-81.3187,28.56063],[-81.31853,28.55984],[-81.31854,28.56026],[-81.31817,28.56027],[-81.31799,28.56064],[-81.31748,28.56065],[-81.31749,28.56116],[-81.31707,28.56116],[-81.31676,28.56142],[-81.31676,28.56171],[-81.31601,28.56192],[-81.31602,28.56283],[-81.31571,28.56283],[-81.31556,28.56325],[-81.31558,28.56448],[-81.32123,28.56441],[-81.32114,28.56074],[-81.32518,28.56068]],[[-81.41806,28.55637],[-81.41809,28.55817],[-81.42006,28.55814],[-81.42009,28.55987],[-81.41811,28.5599],[-81.41811,28.56006],[-81.42845,28.55991],[-81.42845,28.55975],[-81.42291,28.55982],[-81.42285,28.55631],[-81.42527,28.55628],[-81.42529,28.55768],[-81.42636,28.55766],[-81.42634,28.55626],[-81.4253,28.55628],[-81.42525,28.5529],[-81.42251,28.55293],[-81.42252,28.55369],[-81.42314,28.55368],[-81.42315,28.55434],[-81.42019,28.55437],[-81.42018,28.55337],[-81.42065,28.55336],[-81.42064,28.55295],[-81.418,28.55297],[-81.41806,28.55637]],[[-81.42283,28.59637],[-81.42273,28.59124],[-81.42688,28.59121],[-81.42687,28.58901],[-81.42479,28.58902],[-81.42476,28.58621],[-81.42362,28.58621],[-81.42361,28.58547],[-81.42475,28.58547],[-81.42475,28.5853],[-81.42374,28.58531],[-81.42373,28.58476],[-81.42474,28.58475],[-81.4247,28.5818],[-81.42571,28.58174],[-81.42272,28.58175],[-81.42273,28.58534],[-81.41959,28.58536],[-81.41944,28.57825],[-81.41937,28.57922],[-81.41859,28.57922],[-81.41859,28.57878],[-81.41909,28.57877],[-81.41908,28.57825],[-81.41836,28.57826],[-81.41837,28.57868],[-81.41794,28.57868],[-81.41796,28.57914],[-81.41684,28.57915],[-81.41687,28.58006],[-81.41841,28.58005],[-81.41842,28.5804],[-81.41773,28.58041],[-81.41775,28.58177],[-81.41693,28.58178],[-81.41715,28.58934],[-81.41754,28.59039],[-81.41822,28.59139],[-81.41868,28.59109],[-81.4187,28.59194],[-81.41918,28.59269],[-81.42068,28.59268],[-81.4207,28.59446],[-81.4196,28.59456],[-81.41957,28.59489],[-81.42014,28.59474],[-81.42157,28.59473],[-81.42159,28.59622],[-81.42071,28.59622],[-81.42072,28.59639],[-81.42283,28.59637]],[[-81.40446,28.52737],[-81.40398,28.52733],[-81.40413,28.52644],[-81.40624,28.52644],[-81.40624,28.5273],[-81.40942,28.52723],[-81.40937,28.5234],[-81.40956,28.52339],[-81.40949,28.51801],[-81.4089,28.51802],[-81.4074,28.51653],[-81.40619,28.51705],[-81.40618,28.51582],[-81.40537,28.51583],[-81.40535,28.5127],[-81.40172,28.51257],[-81.40172,28.51216],[-81.40132,28.51216],[-81.4013,28.51076],[-81.40102,28.51077],[-81.40096,28.5101],[-81.40061,28.51015],[-81.39961,28.51048],[-81.39869,28.511],[-81.3987,28.5113],[-81.39818,28.5113],[-81.39761,28.51158],[-81.39761,28.51171],[-81.39726,28.51172],[-81.39713,28.51259],[-81.39688,28.51259],[-81.39684,28.51189],[-81.395,28.51214],[-81.395,28.51231],[-81.39403,28.5125],[-81.39326,28.51302],[-81.39326,28.51328],[-81.39298,28.51329],[-81.39298,28.51366],[-81.39273,28.51366],[-81.39273,28.51346],[-81.3926,28.51346],[-81.39261,28.51366],[-81.39208,28.51383],[-81.39183,28.51401],[-81.39183,28.51421],[-81.39152,28.51421],[-81.39121,28.51443],[-81.39122,28.51477],[-81.39025,28.51521],[-81.39026,28.5155],[-81.38979,28.5155],[-81.38917,28.51604],[-81.38876,28.51617],[-81.38891,28.52369],[-81.39501,28.52371],[-81.39501,28.52464],[-81.39305,28.52466],[-81.39306,28.52645],[-81.39633,28.52647],[-81.39633,28.52741],[-81.39713,28.5274],[-81.39712,28.52647],[-81.39918,28.52644],[-81.40103,28.5265],[-81.4011,28.52736],[-81.40125,28.52741],[-81.40446,28.52737]]],[[[-81.17804,28.45073],[-81.17359,28.45076],[-81.17236,28.45017],[-81.17112,28.44998],[-81.17111,28.44986],[-81.16998,28.44986],[-81.16812,28.45078],[-81.16237,28.45077],[-81.16112,28.45052],[-81.16111,28.44757],[-81.1616,28.4477],[-81.16204,28.44725],[-81.16141,28.44655],[-81.15986,28.44656],[-81.15986,28.44747],[-81.1594,28.44783],[-81.15788,28.45037],[-81.15644,28.45036],[-81.15644,28.45058],[-81.15595,28.45058],[-81.15598,28.45071],[-81.14368,28.45064],[-81.14169,28.45025],[-81.14168,28.45042],[-81.1408,28.45058],[-81.12084,28.45038],[-81.12415,28.4504],[-81.12785,28.44746],[-81.13001,28.44412],[-81.13497,28.4433],[-81.13655,28.44118],[-81.13664,28.43807],[-81.1387,28.43301],[-81.13602,28.42868],[-81.139,28.42583],[-81.13561,28.40755],[-81.14442,28.40751],[-81.14442,28.40095],[-81.14617,28.39772],[-81.16095,28.39468],[-81.16105,28.42538],[-81.16802,28.42534],[-81.16772,28.42564],[-81.16896,28.42564],[-81.16969,28.42491],[-81.16969,28.42545],[-81.17315,28.42247],[-81.17387,28.42201],[-81.19431,28.4219],[-81.19454,28.42921],[-81.20072,28.43194],[-81.20063,28.42555],[-81.20475,28.42555],[-81.20469,28.42189],[-81.20974,28.42191],[-81.21049,28.42171],[-81.21129,28.42096],[-81.21231,28.41865],[-81.2193,28.41467],[-81.2192,28.41824],[-81.21751,28.41824],[-81.22014,28.42155],[-81.22194,28.42155],[-81.22261,28.42117],[-81.22348,28.42115],[-81.22446,28.42163],[-81.22494,28.42262],[-81.22687,28.42262],[-81.22663,28.42362],[-81.2254,28.42606],[-81.22546,28.42809],[-81.22778,28.42805],[-81.22899,28.43706],[-81.228,28.43716],[-81.22883,28.43932],[-81.22928,28.43927],[-81.22957,28.44282],[-81.22866,28.44286],[-81.22876,28.44412],[-81.22902,28.44444],[-81.22906,28.44494],[-81.22953,28.44514],[-81.22616,28.44971],[-81.22663,28.45006],[-81.22605,28.45064],[-81.22544,28.45089],[-81.22442,28.45098],[-81.22442,28.45058],[-81.22193,28.45058],[-81.22193,28.451],[-81.2214,28.45101],[-81.21759,28.45032],[-81.21355,28.4511],[-81.17804,28.45128],[-81.17804,28.45073]],[[-81.2105,28.43502],[-81.21024,28.43446],[-81.20989,28.43458],[-81.21015,28.43514],[-81.2105,28.43502]]],[[[-81.26071,28.49149],[-81.26071,28.49542],[-81.2442,28.49548],[-81.2442,28.49366],[-81.24378,28.49367],[-81.2436,28.49216],[-81.24404,28.49165],[-81.24404,28.48787],[-81.24285,28.48697],[-81.24257,28.48692],[-81.2401,28.47806],[-81.23805,28.47784],[-81.2394,28.48062],[-81.23871,28.48062],[-81.23921,28.48257],[-81.24014,28.48238],[-81.24023,28.48257],[-81.24185,28.48956],[-81.23137,28.4896],[-81.23085,28.48822],[-81.23174,28.48822],[-81.23175,28.48457],[-81.22948,28.48458],[-81.2287,28.48309],[-81.2276,28.48198],[-81.22764,28.46223],[-81.23265,28.4622],[-81.23643,28.46915],[-81.23731,28.47114],[-81.23763,28.47217],[-81.23717,28.47226],[-81.23758,28.47387],[-81.23796,28.4738],[-81.23809,28.47467],[-81.23802,28.47733],[-81.23993,28.47741],[-81.2386,28.47218],[-81.23792,28.47016],[-81.23836,28.47002],[-81.23743,28.46812],[-81.23701,28.4683],[-81.23481,28.4642],[-81.23529,28.464],[-81.23287,28.45953],[-81.23214,28.45758],[-81.23171,28.45768],[-81.23136,28.45522],[-81.23147,28.45468],[-81.23202,28.45467],[-81.23201,28.45368],[-81.23153,28.45356],[-81.23155,28.45333],[-81.23181,28.45271],[-81.23234,28.45219],[-81.2332,28.45188],[-81.23358,28.45195],[-81.23358,28.45257],[-81.23494,28.45256],[-81.23493,28.45188],[-81.24732,28.45164],[-81.24983,28.45122],[-81.25637,28.44933],[-81.25967,28.44897],[-81.26066,28.44896],[-81.26066,28.44911],[-81.26082,28.44899],[-81.26487,28.44962],[-81.26628,28.45157],[-81.26788,28.45398],[-81.26763,28.45399],[-81.26893,28.45596],[-81.26432,28.45595],[-81.26458,28.45635],[-81.26919,28.45635],[-81.26945,28.45674],[-81.2697,28.45674],[-81.26995,28.45712],[-81.2651,28.45713],[-81.26536,28.45752],[-81.2702,28.45751],[-81.27099,28.4587],[-81.27075,28.4587],[-81.27101,28.45909],[-81.27125,28.4591],[-81.27658,28.46716],[-81.27292,28.46716],[-81.27299,28.4808],[-81.26069,28.48081],[-81.2607,28.48811],[-81.25849,28.48812],[-81.2585,28.4915],[-81.26071,28.49149]]],[[[-81.15862,28.50195],[-81.15854,28.49586],[-81.14464,28.49589],[-81.1445,28.48858],[-81.14455,28.46667],[-81.16023,28.46662],[-81.16019,28.45473],[-81.16035,28.45448],[-81.16037,28.45313],[-81.16113,28.45311],[-81.16154,28.45463],[-81.162,28.45545],[-81.16399,28.45698],[-81.16687,28.46049],[-81.16762,28.46118],[-81.16867,28.46174],[-81.17,28.46204],[-81.17252,28.46183],[-81.17354,28.46196],[-81.17354,28.46008],[-81.17333,28.45912],[-81.17279,28.45821],[-81.17146,28.4569],[-81.17097,28.45599],[-81.17086,28.45512],[-81.17112,28.45415],[-81.17202,28.45286],[-81.17337,28.4522],[-81.17804,28.45211],[-81.17799,28.46657],[-81.18625,28.46654],[-81.1862,28.49577],[-81.17793,28.4958],[-81.17793,28.49634],[-81.16966,28.49636],[-81.16966,28.49549],[-81.16772,28.49549],[-81.16623,28.49585],[-81.16121,28.49585],[-81.16122,28.50297],[-81.16018,28.50398],[-81.15919,28.5031],[-81.15862,28.50195]]],[[[-81.16043,28.3948],[-81.1581,28.39527],[-81.15603,28.38922],[-81.15384,28.38152],[-81.15419,28.37832],[-81.14687,28.37832],[-81.14686,28.37207],[-81.14233,28.37207],[-81.14234,28.37833],[-81.12793,28.37833],[-81.12777,28.34835],[-81.16078,28.34853],[-81.16091,28.37831],[-81.16615,28.37828],[-81.16617,28.37927],[-81.16859,28.37929],[-81.16838,28.38101],[-81.16691,28.38396],[-81.16693,28.3847],[-81.1673,28.38536],[-81.16533,28.38639],[-81.1665,28.38767],[-81.16847,28.38665],[-81.17062,28.38902],[-81.16987,28.38974],[-81.16211,28.39402],[-81.16043,28.3948]]],[[[-81.21328,28.35241],[-81.21126,28.35242],[-81.21116,28.34824],[-81.23184,28.34814],[-81.23304,28.34932],[-81.23177,28.34932],[-81.23183,28.35179],[-81.21748,28.3518],[-81.21539,28.35237],[-81.21328,28.35241]]],[[[-81.24016,28.39174],[-81.24019,28.389],[-81.23916,28.38901],[-81.2392,28.38536],[-81.23737,28.38536],[-81.23737,28.38445],[-81.23899,28.38445],[-81.23899,28.38308],[-81.24292,28.38308],[-81.24291,28.38336],[-81.24427,28.38336],[-81.24427,28.38363],[-81.24251,28.38363],[-81.24251,28.38407],[-81.24427,28.38408],[-81.2441,28.39516],[-81.24226,28.39517],[-81.24226,28.39578],[-81.23809,28.39581],[-81.2381,28.39175],[-81.24016,28.39174]]],[[[-81.17004,28.46168],[-81.16845,28.46125],[-81.16728,28.46038],[-81.16439,28.45684],[-81.16232,28.45523],[-81.16192,28.45451],[-81.16146,28.45281],[-81.16553,28.45213],[-81.16699,28.45256],[-81.16879,28.45373],[-81.17029,28.45389],[-81.17053,28.4558],[-81.17087,28.45666],[-81.17259,28.45854],[-81.17299,28.45928],[-81.17316,28.46004],[-81.17317,28.46133],[-81.17302,28.46147],[-81.17004,28.46168]]],[[[-81.33085,28.45978],[-81.33083,28.45865],[-81.33882,28.45861],[-81.33878,28.4655],[-81.33827,28.46579],[-81.33088,28.46582],[-81.33085,28.45978]]],[[[-81.35726,28.4271],[-81.35726,28.42885],[-81.35417,28.42883],[-81.35417,28.42709],[-81.35314,28.42708],[-81.35313,28.42526],[-81.35122,28.42525],[-81.35122,28.42432],[-81.35299,28.42433],[-81.35299,28.42354],[-81.35725,28.42355],[-81.35725,28.42336],[-81.35925,28.42241],[-81.35925,28.42345],[-81.35829,28.42344],[-81.35829,28.42711],[-81.35726,28.4271]]],[[[-81.32668,28.48083],[-81.32668,28.4842],[-81.31892,28.48424],[-81.3189,28.48074],[-81.32201,28.48087],[-81.32202,28.48066],[-81.32253,28.48066],[-81.32253,28.48087],[-81.32668,28.48083]]],[[[-81.24236,28.40944],[-81.24137,28.40908],[-81.23981,28.41007],[-81.23831,28.40912],[-81.23839,28.40832],[-81.23762,28.4084],[-81.23697,28.40794],[-81.23653,28.408],[-81.23649,28.4071],[-81.24406,28.40401],[-81.24286,28.41078],[-81.24201,28.41078],[-81.24236,28.40944]]],[[[-81.24429,28.37831],[-81.24428,28.38116],[-81.23856,28.38132],[-81.23858,28.37827],[-81.24429,28.37831]]],[[[-81.48573,28.50749],[-81.48458,28.50556],[-81.48616,28.50525],[-81.49014,28.50824],[-81.48795,28.50827],[-81.48798,28.51192],[-81.48621,28.51194],[-81.48612,28.50883],[-81.48573,28.50749]]],[[[-81.42265,28.58887],[-81.42064,28.58889],[-81.42062,28.58723],[-81.41961,28.58723],[-81.4196,28.58668],[-81.41863,28.58669],[-81.41861,28.5855],[-81.42261,28.58548],[-81.42265,28.58887]]],[[[-81.32621,28.39296],[-81.32613,28.38944],[-81.32821,28.38943],[-81.32829,28.39367],[-81.32695,28.39367],[-81.32693,28.39474],[-81.3262,28.3943],[-81.32621,28.39296]]],[[[-81.33294,28.45345],[-81.33344,28.45252],[-81.33404,28.45249],[-81.33404,28.45341],[-81.33475,28.4534],[-81.33477,28.45489],[-81.33271,28.4549],[-81.33272,28.45673],[-81.33084,28.45674],[-81.3312,28.45562],[-81.33294,28.45345]]],[[[-81.22539,28.41765],[-81.22538,28.41729],[-81.22464,28.41609],[-81.22464,28.4147],[-81.22725,28.41471],[-81.22677,28.4173],[-81.22586,28.41723],[-81.22579,28.41846],[-81.22556,28.41845],[-81.22539,28.41765]]],[[[-81.40906,28.49796],[-81.40905,28.49742],[-81.40929,28.49737],[-81.41238,28.49759],[-81.41247,28.49736],[-81.41217,28.49704],[-81.41065,28.49659],[-81.41067,28.49631],[-81.41085,28.49619],[-81.41025,28.49455],[-81.4099,28.49455],[-81.40982,28.49498],[-81.40914,28.49518],[-81.40932,28.49442],[-81.41036,28.49441],[-81.4106,28.49506],[-81.41135,28.49495],[-81.41145,28.49457],[-81.41207,28.49456],[-81.41208,28.4949],[-81.41065,28.4952],[-81.41099,28.49612],[-81.41246,28.49655],[-81.41311,28.49739],[-81.41312,28.49794],[-81.40838,28.49799],[-81.40906,28.49796]]],[[[-81.22652,28.41942],[-81.22672,28.41919],[-81.22704,28.42192],[-81.22693,28.42236],[-81.22625,28.42173],[-81.2252,28.4211],[-81.22543,28.42042],[-81.22601,28.4201],[-81.22652,28.41942]]],[[[-81.22914,28.48459],[-81.2276,28.48459],[-81.2276,28.48238],[-81.22843,28.48325],[-81.22914,28.48459]]],[[[-81.32787,28.3948],[-81.32763,28.3948],[-81.32763,28.39517],[-81.32702,28.3948],[-81.32704,28.39376],[-81.32848,28.39376],[-81.32845,28.39567],[-81.32786,28.39531],[-81.32787,28.3948]]],[[[-81.21513,28.41618],[-81.21517,28.41469],[-81.21776,28.4147],[-81.21513,28.41618]]],[[[-81.35925,28.42167],[-81.35925,28.42216],[-81.35725,28.42311],[-81.35725,28.42166],[-81.35925,28.42167]]],[[[-81.4464,28.55432],[-81.44562,28.55432],[-81.44562,28.55382],[-81.44515,28.55383],[-81.44514,28.55275],[-81.44639,28.55273],[-81.4464,28.55432]]],[[[-81.27708,28.47206],[-81.27619,28.47206],[-81.27619,28.47162],[-81.27948,28.47161],[-81.27975,28.47205],[-81.27708,28.47206]]],[[[-81.36081,28.51295],[-81.35999,28.513],[-81.35993,28.51186],[-81.36036,28.51185],[-81.36037,28.51262],[-81.3614,28.51261],[-81.3614,28.5125],[-81.36199,28.51261],[-81.36199,28.51243],[-81.36242,28.51242],[-81.36248,28.51273],[-81.36287,28.5128],[-81.36285,28.51297],[-81.36081,28.51295]]],[[[-81.23555,28.35179],[-81.2336,28.35179],[-81.23358,28.35083],[-81.23458,28.35083],[-81.23555,28.35179]]],[[[-81.32668,28.55624],[-81.3278,28.55624],[-81.32779,28.55698],[-81.32667,28.55699],[-81.32668,28.55624]]],[[[-81.39933,28.52559],[-81.39933,28.52638],[-81.39833,28.52638],[-81.39832,28.52561],[-81.39933,28.52559]]],[[[-81.40949,28.60405],[-81.40949,28.60549],[-81.40885,28.60498],[-81.40886,28.60404],[-81.40949,28.60405]]],[[[-81.41349,28.54692],[-81.41283,28.54684],[-81.41282,28.5457],[-81.41348,28.54598],[-81.41349,28.54692]]],[[[-81.3515,28.52398],[-81.35075,28.52399],[-81.35075,28.52325],[-81.35157,28.52324],[-81.3515,28.52398]]],[[[-81.42377,28.50704],[-81.42377,28.50723],[-81.42346,28.50723],[-81.42346,28.50742],[-81.42378,28.50742],[-81.42378,28.50781],[-81.42316,28.50781],[-81.42315,28.50743],[-81.42285,28.50743],[-81.42284,28.50705],[-81.42377,28.50704]]],[[[-81.39471,28.58784],[-81.39397,28.58785],[-81.39396,28.58708],[-81.39439,28.58707],[-81.3944,28.58746],[-81.39471,28.58745],[-81.39471,28.58784]]],[[[-81.29467,28.48134],[-81.29369,28.48134],[-81.29368,28.48092],[-81.29467,28.48092],[-81.29467,28.48134]]],[[[-81.27404,28.46275],[-81.27356,28.46223],[-81.27458,28.46223],[-81.27457,28.46268],[-81.27404,28.46275]]],[[[-81.27426,28.4619],[-81.27335,28.4619],[-81.27318,28.46165],[-81.27426,28.46156],[-81.27426,28.4619]]],[[[-81.39441,28.58877],[-81.39398,28.58878],[-81.39397,28.58801],[-81.3944,28.58801],[-81.39441,28.58877]]],[[[-81.37723,28.58671],[-81.37677,28.58671],[-81.37691,28.58593],[-81.37722,28.58593],[-81.37723,28.58671]]],[[[-81.37701,28.59177],[-81.37623,28.59177],[-81.37622,28.59139],[-81.377,28.59139],[-81.37701,28.59177]]],[[[-81.40202,28.57815],[-81.402,28.57786],[-81.40292,28.57785],[-81.40292,28.57815],[-81.40202,28.57815]]],[[[-81.36245,28.51395],[-81.36201,28.51395],[-81.36203,28.51323],[-81.36229,28.51323],[-81.36245,28.51395]]],[[[-81.34782,28.52427],[-81.348,28.52427],[-81.34801,28.52516],[-81.34772,28.52517],[-81.34782,28.52427]]],[[[-81.36284,28.51009],[-81.3624,28.5101],[-81.3624,28.50949],[-81.36283,28.50949],[-81.36284,28.51009]]],[[[-81.30969,28.35985],[-81.30891,28.35985],[-81.30891,28.35958],[-81.30969,28.35958],[-81.30969,28.35985]]],[[[-81.43151,28.5509],[-81.43196,28.5509],[-81.43196,28.55131],[-81.43151,28.55132],[-81.43151,28.5509]]],[[[-81.37789,28.59019],[-81.37745,28.59019],[-81.37744,28.58957],[-81.37788,28.58996],[-81.37789,28.59019]]],[[[-81.4043,28.5756],[-81.40416,28.57515],[-81.40456,28.57515],[-81.40466,28.57546],[-81.4043,28.5756]]],[[[-81.41068,28.54232],[-81.41032,28.54232],[-81.41031,28.54199],[-81.41068,28.54198],[-81.41068,28.54232]]],[[[-81.36247,28.51582],[-81.36205,28.51582],[-81.36205,28.51563],[-81.36268,28.51562],[-81.36268,28.51576],[-81.36247,28.51582]]],[[[-81.28565,28.50632],[-81.28548,28.50632],[-81.28548,28.50567],[-81.28565,28.50632]]]]}}]}