{"type":"FeatureCollection","features":[{"type":"Feature","properties":{"distrito":"4","fuente":"orlando_distritos"},"geometry":{"type":"MultiPolygon","coordinates":[[[[-81.3517,28.56035],[-81.35214,28.55929],[-81.35204,28.55324],[-81.34474,28.55333],[-81.34469,28.55153],[-81.34483,28.55094],[-81.34548,28.54978],[-81.34554,28.54782],[-81.34516,28.54669],[-81.34414,28.54575],[-81.34383,28.54525],[-81.34376,28.54025],[-81.34357,28.53837],[-81.33142,28.53835],[-81.33133,28.53817],[-81.33121,28.53729],[-81.33091,28.50615],[-81.33106,28.50615],[-81.33107,28.50799],[-81.33298,28.50797],[-81.3328,28.5117],[-81.33507,28.51151],[-81.33508,28.51274],[-81.33321,28.51275],[-81.33322,28.51333],[-81.33612,28.5132],[-81.33611,28.51146],[-81.33714,28.51146],[-81.33715,28.51319],[-81.33913,28.51317],[-81.33917,28.51845],[-81.33513,28.51848],[-81.33525,28.52181],[-81.33938,28.52177],[-81.33938,28.52238],[-81.33975,28.52237],[-81.33975,28.52272],[-81.33938,28.52272],[-81.33939,28.52411],[-81.33984,28.52411],[-81.33984,28.52368],[-81.3403,28.52368],[-81.3403,28.52388],[-81.34061,28.52388],[-81.34061,28.52367],[-81.34074,28.52367],[-81.34073,28.52237],[-81.34135,28.52236],[-81.34136,28.52324],[-81.34349,28.52324],[-81.34349,28.51907],[-81.34686,28.51904],[-81.34685,28.51773],[-81.34738,28.51773],[-81.34741,28.52217],[-81.34756,28.52217],[-81.34766,28.52194],[-81.34765,28.52055],[-81.35009,28.52053],[-81.3501,28.52312],[-81.35059,28.52311],[-81.35059,28.52399],[-81.34397,28.52408],[-81.34397,28.52367],[-81.3435,28.52367],[-81.3435,28.5243],[-81.34403,28.5243],[-81.34396,28.52599],[-81.34499,28.52598],[-81.34498,28.5255],[-81.34439,28.5255],[-81.34438,28.52431],[-81.34611,28.52422],[-81.34612,28.52474],[-81.34652,28.52474],[-81.34654,28.52597],[-81.3486,28.52595],[-81.34858,28.52502],[-81.34944,28.52502],[-81.34945,28.52594],[-81.35178,28.52593],[-81.3518,28.52728],[-81.35224,28.52727],[-81.35225,28.52766],[-81.35575,28.52764],[-81.35575,28.52641],[-81.35531,28.52641],[-81.35531,28.52627],[-81.35575,28.52627],[-81.35572,28.52399],[-81.35544,28.52399],[-81.35543,28.52372],[-81.35518,28.5237],[-81.35531,28.5237],[-81.35532,28.52292],[-81.35579,28.52292],[-81.35579,28.52241],[-81.35603,28.52241],[-81.35603,28.52225],[-81.35786,28.52224],[-81.35787,28.52359],[-81.35985,28.52361],[-81.35984,28.52045],[-81.35787,28.52046],[-81.35784,28.51876],[-81.35909,28.51876],[-81.35909,28.5195],[-81.35982,28.51949],[-81.35982,28.51936],[-81.35947,28.51936],[-81.35947,28.5192],[-81.35982,28.51919],[-81.35981,28.5173],[-81.35894,28.5173],[-81.35894,28.51678],[-81.35872,28.51678],[-81.35871,28.5163],[-81.3592,28.51628],[-81.35909,28.51544],[-81.35938,28.51544],[-81.35937,28.51515],[-81.35981,28.51515],[-81.3598,28.51487],[-81.35938,28.51488],[-81.35937,28.51444],[-81.3598,28.51444],[-81.35979,28.51416],[-81.35887,28.51403],[-81.35887,28.51358],[-81.35785,28.51358],[-81.35786,28.51397],[-81.35755,28.51397],[-81.35754,28.51368],[-81.3573,28.51368],[-81.3573,28.51347],[-81.35677,28.51348],[-81.35677,28.51415],[-81.3561,28.51415],[-81.3561,28.51374],[-81.35508,28.51375],[-81.35508,28.51329],[-81.35448,28.51329],[-81.35449,28.51362],[-81.35492,28.51361],[-81.35492,28.51375],[-81.354,28.51376],[-81.354,28.5133],[-81.35168,28.51331],[-81.35169,28.51681],[-81.34873,28.51682],[-81.34871,28.51593],[-81.34901,28.51593],[-81.34901,28.51503],[-81.35156,28.515],[-81.35156,28.51313],[-81.35573,28.51309],[-81.35573,28.51262],[-81.35647,28.51261],[-81.35647,28.51196],[-81.35759,28.51196],[-81.3576,28.51307],[-81.35993,28.51304],[-81.35994,28.51347],[-81.36003,28.51325],[-81.36185,28.51326],[-81.36185,28.51382],[-81.36098,28.51399],[-81.36097,28.51357],[-81.36039,28.51358],[-81.3604,28.51399],[-81.35995,28.51399],[-81.35996,28.51534],[-81.36087,28.5152],[-81.36087,28.51548],[-81.35997,28.51548],[-81.36,28.51669],[-81.36393,28.51665],[-81.36391,28.51527],[-81.36307,28.51528],[-81.36307,28.51547],[-81.36246,28.51547],[-81.36246,28.5152],[-81.36202,28.5152],[-81.36202,28.51506],[-81.3629,28.51505],[-81.36289,28.51486],[-81.3639,28.51485],[-81.3639,28.51459],[-81.36306,28.51459],[-81.36306,28.51433],[-81.36389,28.51432],[-81.36389,28.51406],[-81.36305,28.51407],[-81.36305,28.51376],[-81.36389,28.51376],[-81.36389,28.51354],[-81.36305,28.51365],[-81.36287,28.51353],[-81.36288,28.51381],[-81.36201,28.51395],[-81.36205,28.51323],[-81.36229,28.51323],[-81.3623,28.51353],[-81.36258,28.51353],[-81.36258,28.51323],[-81.36686,28.51318],[-81.36686,28.51349],[-81.36699,28.51348],[-81.36701,28.51575],[-81.36686,28.51604],[-81.36702,28.51669],[-81.36812,28.51668],[-81.36809,28.51314],[-81.36732,28.51314],[-81.36731,28.51125],[-81.36653,28.51126],[-81.36653,28.5108],[-81.36609,28.5108],[-81.36608,28.50964],[-81.3662,28.50988],[-81.36651,28.50977],[-81.36651,28.50938],[-81.366,28.50939],[-81.36599,28.50882],[-81.36548,28.50928],[-81.36551,28.51293],[-81.36302,28.51294],[-81.36294,28.50935],[-81.36212,28.50936],[-81.36194,28.50797],[-81.36496,28.50667],[-81.36391,28.50683],[-81.36389,28.50308],[-81.35987,28.50311],[-81.35983,28.49761],[-81.36321,28.49757],[-81.36589,28.4948],[-81.3639,28.49858],[-81.36591,28.49856],[-81.36594,28.5021],[-81.36787,28.50207],[-81.36789,28.50378],[-81.36802,28.50396],[-81.36796,28.51074],[-81.36849,28.51074],[-81.3685,28.51215],[-81.36808,28.51215],[-81.36809,28.51291],[-81.37006,28.51289],[-81.37007,28.51121],[-81.36931,28.50936],[-81.37227,28.50934],[-81.37227,28.50896],[-81.37269,28.50895],[-81.37269,28.5084],[-81.37311,28.5084],[-81.37311,28.50925],[-81.3733,28.50925],[-81.3733,28.50881],[-81.37372,28.5088],[-81.37372,28.50894],[-81.37408,28.50894],[-81.37408,28.50924],[-81.37424,28.50924],[-81.37421,28.50647],[-81.37612,28.50627],[-81.37613,28.5052],[-81.37505,28.50521],[-81.37504,28.50566],[-81.37393,28.50568],[-81.37354,28.50568],[-81.37353,28.50523],[-81.3722,28.50524],[-81.3722,28.50483],[-81.37422,28.50477],[-81.37421,28.50393],[-81.37445,28.50393],[-81.37445,28.5038],[-81.37352,28.50382],[-81.37352,28.50354],[-81.37391,28.50354],[-81.3739,28.50326],[-81.37429,28.50326],[-81.37428,28.50255],[-81.37444,28.50255],[-81.37444,28.50241],[-81.37614,28.50239],[-81.37615,28.50319],[-81.37802,28.50317],[-81.3775,28.50105],[-81.37694,28.50105],[-81.37695,28.50171],[-81.37635,28.50172],[-81.37631,28.50031],[-81.37656,28.50031],[-81.37656,28.49993],[-81.37632,28.49993],[-81.37614,28.4984],[-81.37707,28.4984],[-81.37742,28.49985],[-81.37842,28.49984],[-81.37922,28.50316],[-81.37941,28.50316],[-81.38011,28.50604],[-81.38453,28.50596],[-81.38454,28.51323],[-81.38517,28.51412],[-81.38607,28.51453],[-81.38994,28.51454],[-81.38993,28.51422],[-81.39055,28.51389],[-81.3907,28.51343],[-81.3912,28.51342],[-81.39167,28.5131],[-81.39166,28.51291],[-81.39111,28.51292],[-81.39111,28.51268],[-81.39154,28.51262],[-81.39227,28.51198],[-81.39271,28.51193],[-81.39274,28.51164],[-81.39293,28.51164],[-81.39297,28.5123],[-81.39317,28.51197],[-81.39387,28.51161],[-81.39387,28.51139],[-81.39433,28.51129],[-81.39433,28.51085],[-81.39465,28.51082],[-81.39518,28.51046],[-81.39533,28.50955],[-81.39676,28.50862],[-81.39682,28.50733],[-81.39711,28.50733],[-81.39714,28.50803],[-81.39747,28.50807],[-81.39748,28.50918],[-81.40104,28.50914],[-81.40126,28.50926],[-81.40124,28.50676],[-81.40937,28.50669],[-81.40808,28.50881],[-81.40809,28.50909],[-81.41492,28.50904],[-81.41642,28.50874],[-81.41468,28.50876],[-81.41593,28.50839],[-81.41735,28.5075],[-81.41749,28.5071],[-81.41786,28.50709],[-81.41796,28.50749],[-81.41953,28.50748],[-81.42,28.50727],[-81.42113,28.5065],[-81.42311,28.50444],[-81.42175,28.50446],[-81.42169,28.49773],[-81.41788,28.49776],[-81.41788,28.4979],[-81.41769,28.4979],[-81.41777,28.49425],[-81.41803,28.49425],[-81.41802,28.49146],[-81.41674,28.49147],[-81.41667,28.49375],[-81.41418,28.49377],[-81.41418,28.49419],[-81.40939,28.49423],[-81.40937,28.49067],[-81.40987,28.49067],[-81.40985,28.48877],[-81.41212,28.48875],[-81.41211,28.48712],[-81.41782,28.48717],[-81.42573,28.48699],[-81.42569,28.47998],[-81.43207,28.47995],[-81.43194,28.47951],[-81.43806,28.47942],[-81.43806,28.47578],[-81.43932,28.47576],[-81.43932,28.47448],[-81.44225,28.47444],[-81.44223,28.47208],[-81.4444,28.47208],[-81.44935,28.47878],[-81.43676,28.48924],[-81.42327,28.50496],[-81.42138,28.50706],[-81.42039,28.50791],[-81.41755,28.50909],[-81.41575,28.50945],[-81.40116,28.50951],[-81.39946,28.50978],[-81.39611,28.51104],[-81.39431,28.51193],[-81.39018,28.51465],[-81.38761,28.51663],[-81.38677,28.51791],[-81.38623,28.5201],[-81.38623,28.52958],[-81.38605,28.53054],[-81.38551,28.53169],[-81.38326,28.5352],[-81.37968,28.5354],[-81.37581,28.5366],[-81.37598,28.54646],[-81.37679,28.54755],[-81.37687,28.55313],[-81.36549,28.55318],[-81.36548,28.55497],[-81.36506,28.55496],[-81.36498,28.55546],[-81.36508,28.56406],[-81.36445,28.56406],[-81.36446,28.56558],[-81.35518,28.56568],[-81.35519,28.56751],[-81.355,28.56767],[-81.35177,28.56779],[-81.3517,28.56035]],[[-81.42781,28.49056],[-81.42779,28.48875],[-81.42677,28.48876],[-81.42675,28.48703],[-81.42573,28.48703],[-81.42575,28.49058],[-81.42781,28.49056]]],[[[-81.33294,28.45345],[-81.33344,28.45252],[-81.33404,28.45249],[-81.33404,28.45341],[-81.33475,28.4534],[-81.33477,28.45489],[-81.33271,28.4549],[-81.33272,28.45673],[-81.33084,28.45674],[-81.3312,28.45562],[-81.33294,28.45345]]],[[[-81.40906,28.49795],[-81.40905,28.49742],[-81.40929,28.49737],[-81.41238,28.49759],[-81.41247,28.49736],[-81.41217,28.49703],[-81.41065,28.49659],[-81.41067,28.49631],[-81.41085,28.49619],[-81.41025,28.49454],[-81.4099,28.49455],[-81.40982,28.49498],[-81.40942,28.4952],[-81.40914,28.49517],[-81.40932,28.49441],[-81.41036,28.4944],[-81.4106,28.49506],[-81.41134,28.49496],[-81.41145,28.49457],[-81.41207,28.49456],[-81.41208,28.4949],[-81.41065,28.49519],[-81.41099,28.49612],[-81.41246,28.49655],[-81.41311,28.49739],[-81.41312,28.49794],[-81.40838,28.49799],[-81.40906,28.49795]]],[[[-81.36076,28.51299],[-81.35998,28.513],[-81.35992,28.51186],[-81.36036,28.51185],[-81.36037,28.51262],[-81.36139,28.51261],[-81.36139,28.5125],[-81.36198,28.51261],[-81.36198,28.51243],[-81.36242,28.51242],[-81.36248,28.51273],[-81.36287,28.5128],[-81.36285,28.51297],[-81.36076,28.51299]]],[[[-81.35074,28.52366],[-81.35074,28.52325],[-81.35157,28.52324],[-81.35154,28.52397],[-81.35075,28.52398],[-81.35074,28.52366]]],[[[-81.34781,28.52427],[-81.348,28.52427],[-81.34801,28.52516],[-81.34771,28.52516],[-81.3477,28.52435],[-81.34781,28.52427]]],[[[-81.36284,28.51009],[-81.3624,28.5101],[-81.3624,28.50949],[-81.36283,28.50949],[-81.36284,28.51009]]],[[[-81.36247,28.51582],[-81.36205,28.51582],[-81.36205,28.51562],[-81.36268,28.51562],[-81.36247,28.51582]]],[[[-81.35175,28.56021],[-81.3517,28.56035],[-81.3517,28.56033],[-81.35175,28.56021]]]]}},{"type":"Feature","properties":{"distrito":"5","fuente":"orlando_distritos"},"geometry":{"type":"MultiPolygon","coordinates":[[[[-81.41641,28.57812],[-81.4161,28.57299],[-81.41501,28.56836],[-81.41483,28.56666],[-81.41497,28.56547],[-81.41563,28.56312],[-81.41568,28.56209],[-81.41556,28.5613],[-81.41408,28.55695],[-81.41393,28.5528],[-81.37687,28.55313],[-81.37679,28.54755],[-81.37598,28.54646],[-81.37581,28.5366],[-81.37968,28.5354],[-81.38326,28.5352],[-81.38587,28.53106],[-81.393,28.53117],[-81.40539,28.53102],[-81.40537,28.52825],[-81.40644,28.52826],[-81.40681,28.52729],[-81.40942,28.52723],[-81.40943,28.52806],[-81.41014,28.52772],[-81.41269,28.52709],[-81.41358,28.52627],[-81.41416,28.52595],[-81.41504,28.5247],[-81.41653,28.52603],[-81.41491,28.52783],[-81.41417,28.52931],[-81.41388,28.53104],[-81.41415,28.53454],[-81.42609,28.5343],[-81.4342,28.53439],[-81.43419,28.53069],[-81.43433,28.53069],[-81.43432,28.52705],[-81.43421,28.52688],[-81.43853,28.52692],[-81.43964,28.52771],[-81.45478,28.5276],[-81.45476,28.4941],[-81.45896,28.49393],[-81.45905,28.5105],[-81.45983,28.51074],[-81.4604,28.5116],[-81.46084,28.51198],[-81.46182,28.51208],[-81.46217,28.51194],[-81.46328,28.51095],[-81.46347,28.50937],[-81.46385,28.50869],[-81.46435,28.50835],[-81.46498,28.50821],[-81.46731,28.50826],[-81.46857,28.50778],[-81.46936,28.50809],[-81.47059,28.5103],[-81.47061,28.51079],[-81.47034,28.51145],[-81.4703,28.51204],[-81.47076,28.51281],[-81.47094,28.51373],[-81.47077,28.51444],[-81.46937,28.51649],[-81.47175,28.51789],[-81.47339,28.51977],[-81.47244,28.52047],[-81.47177,28.52131],[-81.4711,28.523],[-81.47108,28.52418],[-81.47146,28.5253],[-81.47203,28.52618],[-81.47458,28.52853],[-81.47546,28.52981],[-81.47573,28.53119],[-81.47575,28.53393],[-81.46342,28.53404],[-81.46333,28.53268],[-81.46234,28.53268],[-81.46233,28.53213],[-81.46109,28.53214],[-81.46115,28.5336],[-81.46068,28.53361],[-81.46069,28.53399],[-81.46116,28.53399],[-81.46127,28.53692],[-81.4608,28.53692],[-81.46077,28.53782],[-81.46029,28.53784],[-81.46028,28.53732],[-81.45923,28.53733],[-81.45923,28.53783],[-81.45775,28.53785],[-81.45783,28.5359],[-81.45708,28.5359],[-81.45708,28.53504],[-81.45523,28.53505],[-81.45524,28.53582],[-81.45214,28.53583],[-81.45212,28.53501],[-81.45298,28.535],[-81.45296,28.53421],[-81.45522,28.53419],[-81.45521,28.53397],[-81.45456,28.53398],[-81.45456,28.5341],[-81.44273,28.53431],[-81.44272,28.52862],[-81.44288,28.52862],[-81.44286,28.52807],[-81.44319,28.528],[-81.44247,28.52801],[-81.44249,28.53431],[-81.44069,28.53433],[-81.4407,28.5324],[-81.43942,28.53241],[-81.43938,28.52783],[-81.43854,28.52783],[-81.43853,28.52708],[-81.43448,28.52707],[-81.4345,28.53447],[-81.43505,28.53447],[-81.43504,28.53523],[-81.4345,28.53523],[-81.4345,28.53616],[-81.43856,28.53611],[-81.43856,28.53443],[-81.44272,28.53439],[-81.44268,28.53988],[-81.44227,28.53989],[-81.44226,28.53917],[-81.44133,28.53926],[-81.44134,28.53991],[-81.44174,28.5399],[-81.44175,28.54163],[-81.44063,28.54165],[-81.44064,28.54261],[-81.44218,28.54258],[-81.44218,28.54312],[-81.44261,28.54313],[-81.44263,28.54484],[-81.44206,28.54499],[-81.44206,28.54475],[-81.44168,28.54475],[-81.44168,28.5439],[-81.44065,28.54391],[-81.44064,28.54346],[-81.43855,28.54348],[-81.43861,28.54605],[-81.43976,28.54572],[-81.43977,28.5464],[-81.43993,28.54643],[-81.43993,28.54624],[-81.44028,28.54624],[-81.44027,28.54562],[-81.44256,28.54525],[-81.44264,28.54649],[-81.44171,28.5465],[-81.44171,28.54702],[-81.44244,28.54701],[-81.44244,28.54668],[-81.44264,28.54668],[-81.44264,28.54707],[-81.43979,28.5471],[-81.43979,28.54791],[-81.43862,28.54792],[-81.43861,28.54744],[-81.4375,28.54744],[-81.43711,28.54632],[-81.43657,28.54653],[-81.43655,28.54545],[-81.43505,28.54531],[-81.43505,28.54546],[-81.43553,28.54546],[-81.43555,28.54687],[-81.43507,28.54702],[-81.43506,28.54659],[-81.43477,28.54659],[-81.43475,28.54573],[-81.4324,28.54575],[-81.43241,28.54655],[-81.43178,28.54623],[-81.43177,28.54535],[-81.43038,28.54536],[-81.43038,28.54491],[-81.43299,28.54489],[-81.433,28.54534],[-81.43433,28.54533],[-81.43433,28.54348],[-81.43042,28.5435],[-81.43039,28.5417],[-81.4325,28.5417],[-81.4325,28.5414],[-81.43434,28.5414],[-81.43433,28.5408],[-81.43249,28.5408],[-81.43248,28.53994],[-81.43433,28.53995],[-81.43432,28.5394],[-81.43247,28.53939],[-81.43247,28.53905],[-81.43433,28.53905],[-81.43432,28.53809],[-81.42608,28.53808],[-81.42608,28.53793],[-81.42221,28.53802],[-81.42215,28.54173],[-81.4139,28.54177],[-81.41382,28.54057],[-81.4146,28.54056],[-81.4146,28.54009],[-81.41268,28.54014],[-81.41263,28.54044],[-81.41207,28.54045],[-81.41206,28.54015],[-81.41016,28.54017],[-81.41017,28.54048],[-81.41001,28.54048],[-81.41001,28.54018],[-81.40969,28.54018],[-81.40971,28.54116],[-81.41033,28.54099],[-81.41034,28.54152],[-81.41073,28.54151],[-81.41073,28.54182],[-81.40972,28.54183],[-81.40977,28.55063],[-81.41144,28.55062],[-81.41143,28.54979],[-81.41351,28.54977],[-81.4135,28.54824],[-81.4121,28.54829],[-81.41212,28.54758],[-81.41165,28.54723],[-81.41165,28.54694],[-81.41267,28.54693],[-81.41267,28.54734],[-81.41396,28.54733],[-81.41388,28.54423],[-81.41396,28.54359],[-81.41419,28.54351],[-81.41464,28.54383],[-81.41464,28.54403],[-81.41496,28.54403],[-81.41556,28.54442],[-81.41464,28.54442],[-81.41479,28.54628],[-81.4181,28.54737],[-81.41896,28.5475],[-81.41896,28.54888],[-81.41802,28.54903],[-81.41802,28.54918],[-81.41956,28.54917],[-81.41955,28.54852],[-81.42016,28.54851],[-81.42016,28.54745],[-81.42628,28.5474],[-81.42627,28.54634],[-81.42915,28.54623],[-81.43024,28.54633],[-81.42993,28.54633],[-81.42994,28.54671],[-81.42916,28.54672],[-81.42916,28.54711],[-81.43017,28.54712],[-81.43044,28.54745],[-81.43045,28.549],[-81.43136,28.54899],[-81.43141,28.55245],[-81.43396,28.55242],[-81.43395,28.55185],[-81.43352,28.55185],[-81.43351,28.55144],[-81.43414,28.55143],[-81.43413,28.55082],[-81.43451,28.55082],[-81.43457,28.55159],[-81.43452,28.55198],[-81.43414,28.55198],[-81.43414,28.55241],[-81.44192,28.55235],[-81.44192,28.5519],[-81.4423,28.55189],[-81.4423,28.55116],[-81.44248,28.55116],[-81.44248,28.55081],[-81.44287,28.55081],[-81.44285,28.54966],[-81.44421,28.54965],[-81.44422,28.55079],[-81.44594,28.55079],[-81.44594,28.55232],[-81.44547,28.55233],[-81.44547,28.55159],[-81.44499,28.55159],[-81.44499,28.55233],[-81.44397,28.55234],[-81.44396,28.55096],[-81.44346,28.55097],[-81.44346,28.55139],[-81.44287,28.5514],[-81.44288,28.55974],[-81.43812,28.55977],[-81.43821,28.56698],[-81.43676,28.56699],[-81.43685,28.57023],[-81.43522,28.57185],[-81.43493,28.57233],[-81.43492,28.57437],[-81.4346,28.57437],[-81.43459,28.57478],[-81.43429,28.57534],[-81.43428,28.57667],[-81.43405,28.57707],[-81.43418,28.57798],[-81.43192,28.57799],[-81.43182,28.57439],[-81.43381,28.57438],[-81.4338,28.57425],[-81.43343,28.57425],[-81.43326,28.57337],[-81.43283,28.57254],[-81.43078,28.57256],[-81.43075,28.57072],[-81.4304,28.57072],[-81.43034,28.57092],[-81.42663,28.57037],[-81.42654,28.56911],[-81.42855,28.56909],[-81.42852,28.56721],[-81.43049,28.56718],[-81.43048,28.56614],[-81.42949,28.56616],[-81.4295,28.56698],[-81.42698,28.56701],[-81.42697,28.56618],[-81.42646,28.56619],[-81.42646,28.56706],[-81.4244,28.56708],[-81.42438,28.56531],[-81.42325,28.56532],[-81.42327,28.56709],[-81.41822,28.56718],[-81.42646,28.56718],[-81.42626,28.56766],[-81.4263,28.56837],[-81.42591,28.56837],[-81.42591,28.56858],[-81.42631,28.56857],[-81.42642,28.57028],[-81.42632,28.57035],[-81.42251,28.56981],[-81.42238,28.56952],[-81.42225,28.56953],[-81.42226,28.56978],[-81.41956,28.56948],[-81.41958,28.56921],[-81.41933,28.56919],[-81.41931,28.56947],[-81.41613,28.56945],[-81.41592,28.56921],[-81.41619,28.57032],[-81.41635,28.57007],[-81.41682,28.57004],[-81.41927,28.57006],[-81.41926,28.57026],[-81.41951,28.57028],[-81.41953,28.57003],[-81.42014,28.57007],[-81.42227,28.57034],[-81.42228,28.57079],[-81.42252,28.57079],[-81.42252,28.57037],[-81.43036,28.57162],[-81.43045,28.57256],[-81.42663,28.57259],[-81.42656,28.57438],[-81.42554,28.57451],[-81.42559,28.57625],[-81.42662,28.57625],[-81.42657,28.57442],[-81.43055,28.57439],[-81.4306,28.57622],[-81.42871,28.57623],[-81.42874,28.57807],[-81.41641,28.57812]],[[-81.42845,28.55991],[-81.42845,28.55975],[-81.42291,28.55982],[-81.42285,28.5563],[-81.42527,28.55627],[-81.42529,28.55767],[-81.42636,28.55766],[-81.42634,28.55626],[-81.4253,28.55627],[-81.42525,28.5529],[-81.42251,28.55293],[-81.42252,28.55368],[-81.42314,28.55368],[-81.42315,28.55434],[-81.42019,28.55437],[-81.42018,28.55336],[-81.42065,28.55336],[-81.42064,28.55295],[-81.418,28.55297],[-81.41809,28.55817],[-81.42006,28.55814],[-81.42009,28.55986],[-81.41811,28.5599],[-81.41811,28.56006],[-81.42845,28.55991]],[[-81.42785,28.55469],[-81.42786,28.55538],[-81.42856,28.55537],[-81.42855,28.55469],[-81.42878,28.55468],[-81.42879,28.55537],[-81.4298,28.55536],[-81.42981,28.55559],[-81.43035,28.55559],[-81.43034,28.55511],[-81.4298,28.55511],[-81.42979,28.55467],[-81.42785,28.55469]],[[-81.43053,28.55486],[-81.43054,28.55622],[-81.43148,28.55621],[-81.43146,28.55485],[-81.43053,28.55486]],[[-81.4266,28.55467],[-81.42677,28.5547],[-81.42678,28.55385],[-81.42732,28.55384],[-81.4273,28.55288],[-81.42657,28.55289],[-81.4266,28.55467]],[[-81.42936,28.55157],[-81.42937,28.55245],[-81.43031,28.55244],[-81.4303,28.55157],[-81.42936,28.55157]],[[-81.41517,28.55259],[-81.41517,28.55218],[-81.41462,28.55218],[-81.41462,28.5526],[-81.41517,28.55259]],[[-81.42977,28.55285],[-81.42977,28.55326],[-81.43032,28.55326],[-81.43031,28.55285],[-81.42977,28.55285]],[[-81.4343,28.53587],[-81.43385,28.53587],[-81.43385,28.53602],[-81.4343,28.53602],[-81.4343,28.53587]],[[-81.4343,28.53557],[-81.43385,28.53557],[-81.43385,28.53572],[-81.4343,28.53572],[-81.4343,28.53557]],[[-81.43854,28.53803],[-81.43854,28.53806],[-81.43947,28.53805],[-81.43947,28.53801],[-81.43854,28.53803]]],[[[-81.44328,28.58203],[-81.4433,28.58173],[-81.4309,28.58182],[-81.43106,28.58171],[-81.43098,28.57874],[-81.4316,28.57874],[-81.43159,28.57812],[-81.44082,28.57809],[-81.44078,28.57566],[-81.44302,28.57565],[-81.44306,28.57816],[-81.44738,28.5781],[-81.44739,28.58533],[-81.44328,28.58538],[-81.44328,28.58203]]],[[[-81.44561,28.55386],[-81.44515,28.55382],[-81.44514,28.55275],[-81.44639,28.55273],[-81.44639,28.55431],[-81.44562,28.55432],[-81.44561,28.55386]]],[[[-81.4133,28.54692],[-81.41282,28.54684],[-81.41282,28.5457],[-81.41348,28.54597],[-81.41349,28.54692],[-81.4133,28.54692]]],[[[-81.4315,28.55089],[-81.43195,28.55089],[-81.43195,28.5513],[-81.4315,28.55131],[-81.4315,28.55089]]],[[[-81.41031,28.54199],[-81.41068,28.54198],[-81.41068,28.54231],[-81.41032,28.54232],[-81.41031,28.54199]]]]}},{"type":"Feature","properties":{"distrito":"2","fuente":"orlando_distritos"},"geometry":{"type":"MultiPolygon","coordinates":[[[[-81.31825,28.45175],[-81.31682,28.45175],[-81.31611,28.45201],[-81.31682,28.45175],[-81.31826,28.45175],[-81.31825,28.45134],[-81.33086,28.45131],[-81.33501,28.45106],[-81.335,28.45173],[-81.33063,28.45176],[-81.33064,28.45358],[-81.33166,28.45436],[-81.33083,28.45539],[-81.33059,28.45604],[-81.33061,28.46036],[-81.32697,28.46038],[-81.3306,28.4604],[-81.33064,28.46696],[-81.32809,28.46697],[-81.32809,28.46774],[-81.33064,28.46773],[-81.33065,28.47092],[-81.3305,28.47092],[-81.3305,28.47138],[-81.33066,28.47138],[-81.33066,28.47167],[-81.33026,28.47167],[-81.33026,28.47184],[-81.33066,28.47183],[-81.33051,28.4732],[-81.33066,28.4732],[-81.33069,28.47868],[-81.32872,28.47869],[-81.32871,28.47687],[-81.3251,28.47689],[-81.32512,28.47979],[-81.3246,28.47993],[-81.3246,28.48046],[-81.32097,28.48048],[-81.32097,28.4787],[-81.32148,28.47869],[-81.32148,28.47691],[-81.31372,28.47694],[-81.31325,28.47699],[-81.31317,28.48044],[-81.31316,28.47694],[-81.31269,28.47695],[-81.3127,28.48052],[-81.31042,28.48039],[-81.31048,28.48793],[-81.31429,28.48791],[-81.31433,28.49693],[-81.31803,28.49691],[-81.31806,28.50067],[-81.31849,28.50066],[-81.31852,28.50624],[-81.33091,28.50614],[-81.33126,28.53794],[-81.33142,28.53835],[-81.34357,28.53837],[-81.34375,28.54014],[-81.34383,28.54525],[-81.34414,28.54575],[-81.34519,28.54673],[-81.34554,28.54782],[-81.34548,28.54978],[-81.34483,28.55094],[-81.34469,28.55153],[-81.34474,28.55333],[-81.31281,28.55358],[-81.31277,28.54994],[-81.31897,28.54988],[-81.31892,28.54624],[-81.31694,28.54625],[-81.31693,28.54546],[-81.31593,28.54535],[-81.31488,28.54547],[-81.3149,28.54682],[-81.31131,28.54681],[-81.31131,28.54745],[-81.31052,28.54747],[-81.31053,28.54804],[-81.30965,28.54804],[-81.30966,28.54904],[-81.30903,28.54905],[-81.30904,28.54997],[-81.30863,28.54997],[-81.30866,28.55277],[-81.30889,28.55276],[-81.30907,28.55299],[-81.30888,28.55304],[-81.30888,28.55353],[-81.3066,28.55355],[-81.30657,28.54998],[-81.30816,28.54997],[-81.30815,28.54816],[-81.30758,28.54816],[-81.30759,28.5491],[-81.30808,28.54906],[-81.30808,28.54981],[-81.30553,28.54983],[-81.30552,28.54818],[-81.30655,28.54818],[-81.30653,28.54633],[-81.30835,28.54632],[-81.30835,28.54593],[-81.30844,28.54632],[-81.30884,28.54632],[-81.30884,28.54593],[-81.30996,28.54592],[-81.30996,28.54631],[-81.31051,28.5463],[-81.31043,28.5392],[-81.29198,28.5393],[-81.29197,28.53788],[-81.29111,28.53789],[-81.29104,28.53299],[-81.28953,28.53301],[-81.28876,28.53184],[-81.28847,28.53167],[-81.28813,28.5295],[-81.28842,28.52884],[-81.28916,28.52822],[-81.28916,28.52775],[-81.28881,28.52734],[-81.28921,28.52703],[-81.29,28.52658],[-81.29078,28.52647],[-81.29133,28.52838],[-81.29206,28.52949],[-81.29415,28.52864],[-81.29412,28.52636],[-81.29618,28.52635],[-81.29616,28.52453],[-81.298,28.52452],[-81.29796,28.5191],[-81.2967,28.51863],[-81.29665,28.51873],[-81.29768,28.51911],[-81.29768,28.51946],[-81.29784,28.51946],[-81.29787,28.52263],[-81.29526,28.52266],[-81.29526,28.52235],[-81.29422,28.52236],[-81.29421,28.52215],[-81.29409,28.52215],[-81.29405,28.51749],[-81.29381,28.5174],[-81.29377,28.51371],[-81.29196,28.5124],[-81.29195,28.51064],[-81.2908,28.5102],[-81.2896,28.5063],[-81.28597,28.50632],[-81.28574,28.50541],[-81.28611,28.50541],[-81.28618,28.50504],[-81.28567,28.50496],[-81.28959,28.50494],[-81.28958,28.50266],[-81.2963,28.50263],[-81.29628,28.49914],[-81.29526,28.49915],[-81.29524,28.49537],[-81.29575,28.49536],[-81.29576,28.49572],[-81.29616,28.49572],[-81.29616,28.49536],[-81.29729,28.49535],[-81.29731,28.49904],[-81.30506,28.499],[-81.30508,28.50259],[-81.30611,28.50259],[-81.30608,28.49527],[-81.30401,28.49529],[-81.30396,28.48796],[-81.3044,28.48796],[-81.30439,28.48625],[-81.30219,28.48626],[-81.30218,28.48384],[-81.30618,28.48392],[-81.30683,28.48374],[-81.30669,28.48323],[-81.30662,28.48077],[-81.30908,28.48077],[-81.30907,28.47696],[-81.30183,28.477],[-81.30182,28.47517],[-81.29877,28.47519],[-81.29876,28.47336],[-81.29769,28.47336],[-81.2979,28.47242],[-81.2988,28.47274],[-81.29963,28.47281],[-81.30181,28.47207],[-81.30178,28.46611],[-81.29716,28.46607],[-81.29704,28.46486],[-81.29655,28.46364],[-81.2962,28.46215],[-81.29612,28.45998],[-81.29572,28.45812],[-81.29578,28.45741],[-81.29647,28.45501],[-81.29688,28.45447],[-81.29628,28.45354],[-81.29655,28.4516],[-81.29638,28.45126],[-81.31825,28.45133],[-81.31825,28.45175]],[[-81.31052,28.54721],[-81.31052,28.54691],[-81.31004,28.54691],[-81.31005,28.54722],[-81.31052,28.54721]],[[-81.32081,28.46446],[-81.32102,28.46585],[-81.32118,28.46585],[-81.32096,28.46443],[-81.32072,28.46402],[-81.32081,28.4634],[-81.32065,28.46339],[-81.32056,28.46404],[-81.32081,28.46446]],[[-81.32557,28.4661],[-81.32557,28.46592],[-81.32454,28.46592],[-81.32455,28.46957],[-81.32559,28.46957],[-81.32557,28.4661]],[[-81.31459,28.51699],[-81.31862,28.51706],[-81.31861,28.51533],[-81.31645,28.51533],[-81.31646,28.51644],[-81.31502,28.51644],[-81.31501,28.5149],[-81.31457,28.5149],[-81.31459,28.51699]],[[-81.30998,28.50982],[-81.30992,28.50272],[-81.30611,28.50273],[-81.30612,28.50513],[-81.3055,28.50514],[-81.30572,28.50622],[-81.30613,28.50621],[-81.30616,28.50985],[-81.30998,28.50982]]],[[[-81.3388,28.4586],[-81.33887,28.46524],[-81.33868,28.46561],[-81.33829,28.46578],[-81.33088,28.46582],[-81.33084,28.45864],[-81.3388,28.4586]]],[[[-81.32668,28.48083],[-81.32668,28.4842],[-81.31892,28.48424],[-81.3189,28.48074],[-81.32201,28.48087],[-81.32201,28.48066],[-81.32253,28.48065],[-81.32253,28.48087],[-81.32668,28.48083]]],[[[-81.28565,28.50632],[-81.28548,28.50632],[-81.28548,28.50566],[-81.28565,28.50632]]]]}},{"type":"Feature","properties":{"distrito":"6","fuente":"orlando_distritos"},"geometry":{"type":"MultiPolygon","coordinates":[[[[-81.40942,28.52723],[-81.40681,28.52729],[-81.40644,28.52826],[-81.40537,28.52825],[-81.40539,28.53102],[-81.393,28.53117],[-81.38587,28.53106],[-81.38623,28.52958],[-81.38623,28.5201],[-81.38677,28.51791],[-81.38799,28.51626],[-81.3928,28.51282],[-81.39521,28.51145],[-81.39931,28.50984],[-81.40116,28.50951],[-81.41575,28.50945],[-81.41662,28.50934],[-81.4186,28.50875],[-81.42039,28.50791],[-81.42279,28.50552],[-81.43676,28.48924],[-81.44935,28.47878],[-81.4444,28.47208],[-81.44225,28.4721],[-81.44225,28.47444],[-81.43932,28.47448],[-81.43932,28.47576],[-81.43805,28.47578],[-81.43805,28.47395],[-81.4339,28.47401],[-81.4339,28.47232],[-81.44012,28.47227],[-81.44012,28.47196],[-81.43981,28.47196],[-81.4398,28.4684],[-81.43565,28.46485],[-81.42799,28.46494],[-81.42799,28.46475],[-81.41903,28.46472],[-81.42009,28.46351],[-81.42296,28.46064],[-81.42313,28.46072],[-81.42325,28.4606],[-81.42416,28.46131],[-81.42472,28.46075],[-81.42382,28.46004],[-81.42671,28.45704],[-81.43304,28.46254],[-81.43487,28.4609],[-81.43487,28.46035],[-81.43526,28.46008],[-81.4355,28.45964],[-81.43531,28.45861],[-81.43463,28.45845],[-81.43439,28.4579],[-81.43509,28.45704],[-81.43476,28.45628],[-81.43479,28.45601],[-81.43585,28.45471],[-81.43608,28.45382],[-81.43703,28.45355],[-81.43702,28.45219],[-81.43666,28.45189],[-81.43663,28.45055],[-81.44121,28.45051],[-81.44121,28.4513],[-81.44203,28.45129],[-81.44213,28.46119],[-81.44255,28.46127],[-81.4504,28.46122],[-81.45031,28.44975],[-81.46264,28.44968],[-81.46264,28.44985],[-81.46468,28.44984],[-81.46466,28.44752],[-81.46594,28.44751],[-81.46556,28.44983],[-81.46671,28.44982],[-81.46666,28.45737],[-81.4744,28.4573],[-81.47481,28.45481],[-81.47722,28.45518],[-81.47747,28.45488],[-81.47745,28.45365],[-81.47964,28.45364],[-81.48113,28.45431],[-81.48115,28.45727],[-81.47909,28.45728],[-81.4791,28.46077],[-81.48117,28.46076],[-81.48118,28.4638],[-81.47753,28.46369],[-81.47753,28.46287],[-81.47659,28.46288],[-81.47659,28.46248],[-81.47563,28.46249],[-81.47563,28.46282],[-81.47507,28.46282],[-81.47508,28.46365],[-81.47577,28.46365],[-81.47577,28.46409],[-81.47508,28.46409],[-81.4751,28.468],[-81.47914,28.46799],[-81.47916,28.47165],[-81.47899,28.47165],[-81.479,28.4722],[-81.48024,28.47245],[-81.48089,28.47235],[-81.48071,28.47314],[-81.48028,28.47356],[-81.47843,28.47418],[-81.4766,28.47515],[-81.47525,28.4752],[-81.47511,28.47508],[-81.47508,28.4788],[-81.47574,28.4808],[-81.4755,28.48088],[-81.47524,28.48064],[-81.47483,28.48061],[-81.46885,28.48277],[-81.46668,28.48304],[-81.46676,28.48643],[-81.47085,28.48644],[-81.47101,28.49009],[-81.47513,28.49008],[-81.47531,28.49739],[-81.47944,28.49737],[-81.47947,28.49947],[-81.47703,28.49829],[-81.47464,28.4974],[-81.47223,28.49741],[-81.47632,28.49892],[-81.47849,28.4999],[-81.48086,28.5013],[-81.48346,28.50322],[-81.48359,28.50453],[-81.48344,28.50453],[-81.48345,28.5047],[-81.48364,28.50469],[-81.48374,28.50492],[-81.48376,28.50561],[-81.48422,28.50561],[-81.48552,28.50778],[-81.48581,28.50857],[-81.48592,28.51336],[-81.4857,28.51438],[-81.48503,28.5156],[-81.49214,28.51554],[-81.4921,28.50971],[-81.49294,28.51037],[-81.49286,28.51044],[-81.49415,28.51157],[-81.49646,28.51403],[-81.49857,28.51583],[-81.50144,28.51769],[-81.50519,28.5196],[-81.5075,28.52125],[-81.50708,28.52205],[-81.50753,28.52264],[-81.49222,28.52277],[-81.49218,28.5192],[-81.48807,28.51923],[-81.48809,28.52106],[-81.48257,28.52111],[-81.47983,28.52197],[-81.47987,28.5276],[-81.47797,28.52754],[-81.47797,28.52768],[-81.47571,28.52851],[-81.47573,28.53119],[-81.47558,28.53011],[-81.47517,28.52926],[-81.47458,28.52853],[-81.47203,28.52618],[-81.47119,28.52458],[-81.4711,28.523],[-81.4714,28.52203],[-81.4722,28.52073],[-81.47339,28.51977],[-81.47175,28.51789],[-81.46937,28.51649],[-81.47077,28.51444],[-81.47094,28.51373],[-81.47076,28.51281],[-81.4703,28.51204],[-81.47034,28.51145],[-81.47061,28.51079],[-81.47059,28.5103],[-81.46936,28.50809],[-81.46857,28.50778],[-81.46731,28.50826],[-81.46498,28.50821],[-81.46435,28.50835],[-81.46385,28.50869],[-81.46347,28.50937],[-81.46328,28.51095],[-81.46217,28.51194],[-81.46182,28.51208],[-81.46084,28.51198],[-81.4604,28.5116],[-81.45983,28.51074],[-81.45905,28.5105],[-81.45896,28.49393],[-81.45632,28.49399],[-81.45476,28.4941],[-81.45478,28.5276],[-81.43964,28.52771],[-81.43853,28.52692],[-81.43421,28.52688],[-81.43421,28.52705],[-81.43336,28.52705],[-81.43336,28.52764],[-81.43274,28.52743],[-81.43274,28.52706],[-81.42619,28.52711],[-81.4262,28.53069],[-81.43419,28.53069],[-81.4342,28.53439],[-81.42609,28.5343],[-81.41415,28.53454],[-81.41388,28.53104],[-81.41417,28.52931],[-81.41491,28.52783],[-81.41653,28.52603],[-81.41504,28.5247],[-81.41416,28.52595],[-81.41358,28.52627],[-81.41269,28.52709],[-81.41014,28.52772],[-81.40943,28.52806],[-81.40937,28.52339],[-81.40956,28.52338],[-81.40949,28.51796],[-81.4089,28.51801],[-81.4074,28.51652],[-81.40619,28.51703],[-81.40618,28.51581],[-81.40537,28.51582],[-81.40535,28.51269],[-81.40172,28.51256],[-81.40172,28.51215],[-81.40132,28.51215],[-81.4013,28.51075],[-81.40103,28.51076],[-81.40096,28.5101],[-81.40061,28.51015],[-81.39961,28.51048],[-81.39869,28.511],[-81.3987,28.5113],[-81.39818,28.5113],[-81.39761,28.51158],[-81.39761,28.51171],[-81.39726,28.51172],[-81.39713,28.51259],[-81.39688,28.51259],[-81.39683,28.51189],[-81.39481,28.51216],[-81.39481,28.5123],[-81.39403,28.51249],[-81.39325,28.513],[-81.39326,28.51327],[-81.39295,28.51328],[-81.39295,28.51365],[-81.39273,28.51365],[-81.39273,28.51345],[-81.39261,28.51345],[-81.39261,28.51365],[-81.39226,28.51365],[-81.39183,28.514],[-81.39183,28.51419],[-81.39121,28.51439],[-81.39122,28.51476],[-81.39025,28.51519],[-81.39026,28.51549],[-81.38979,28.51549],[-81.38917,28.51603],[-81.38876,28.51616],[-81.38891,28.52368],[-81.39501,28.5237],[-81.39501,28.52463],[-81.39305,28.52465],[-81.39306,28.52644],[-81.39633,28.52647],[-81.39633,28.5274],[-81.39713,28.5274],[-81.39712,28.52647],[-81.39918,28.52644],[-81.40103,28.5265],[-81.4011,28.52735],[-81.40125,28.5274],[-81.40446,28.52736],[-81.40398,28.52733],[-81.40413,28.52644],[-81.40624,28.52644],[-81.40624,28.52729],[-81.40942,28.52723]],[[-81.42503,28.46221],[-81.42495,28.46214],[-81.4249,28.46219],[-81.42498,28.46225],[-81.42503,28.46221]],[[-81.44062,28.45497],[-81.44062,28.45489],[-81.44041,28.45489],[-81.44042,28.45498],[-81.44062,28.45497]],[[-81.46292,28.49356],[-81.46351,28.49347],[-81.46292,28.49303],[-81.46292,28.49356]],[[-81.42682,28.50587],[-81.42673,28.50546],[-81.42589,28.50547],[-81.42589,28.5052],[-81.42361,28.50522],[-81.42293,28.506],[-81.4259,28.50597],[-81.4259,28.50687],[-81.42636,28.50687],[-81.42699,28.50602],[-81.42682,28.50587]],[[-81.42393,28.50703],[-81.42377,28.50703],[-81.42377,28.5069],[-81.42213,28.50691],[-81.42202,28.50705],[-81.42221,28.50705],[-81.42222,28.50743],[-81.42253,28.50743],[-81.42254,28.50782],[-81.42115,28.5079],[-81.42063,28.50837],[-81.42189,28.50835],[-81.42188,28.50796],[-81.42285,28.50795],[-81.42285,28.50834],[-81.42254,28.50834],[-81.42254,28.50875],[-81.42457,28.5087],[-81.42456,28.50832],[-81.42394,28.50833],[-81.42393,28.50742],[-81.42424,28.50741],[-81.42424,28.50703],[-81.42393,28.50703]],[[-81.46693,28.49345],[-81.46757,28.49347],[-81.46754,28.49192],[-81.46338,28.49196],[-81.46548,28.49336],[-81.46693,28.49345]]],[[[-81.48597,28.50802],[-81.48458,28.50556],[-81.48616,28.50524],[-81.49014,28.50824],[-81.48795,28.50826],[-81.48798,28.51192],[-81.48621,28.51194],[-81.48612,28.50882],[-81.48597,28.50802]]],[[[-81.39933,28.52559],[-81.39933,28.52638],[-81.39833,28.52638],[-81.39832,28.52561],[-81.39933,28.52559]]],[[[-81.42377,28.50703],[-81.42377,28.50723],[-81.42346,28.50723],[-81.42347,28.50742],[-81.42378,28.50742],[-81.42378,28.5078],[-81.42316,28.50781],[-81.42315,28.50742],[-81.42284,28.50743],[-81.42284,28.50704],[-81.42377,28.50703]]]]}},{"type":"Feature","properties":{"distrito":"3","fuente":"orlando_distritos"},"geometry":{"type":"MultiPolygon","coordinates":[[[[-81.41055,28.60027],[-81.41051,28.59577],[-81.41532,28.59574],[-81.41374,28.59273],[-81.40634,28.59279],[-81.40628,28.58916],[-81.40691,28.58916],[-81.40679,28.58551],[-81.40987,28.58548],[-81.41002,28.58576],[-81.40904,28.58577],[-81.4091,28.58731],[-81.41091,28.58729],[-81.41181,28.58911],[-81.41045,28.58912],[-81.41047,28.59082],[-81.41246,28.59],[-81.40716,28.57988],[-81.40692,28.57884],[-81.40689,28.57608],[-81.40662,28.57457],[-81.40596,28.57458],[-81.40593,28.57645],[-81.40532,28.57645],[-81.40484,28.57545],[-81.40443,28.5739],[-81.40425,28.57393],[-81.40454,28.57507],[-81.40401,28.57508],[-81.4042,28.57577],[-81.40414,28.57618],[-81.40352,28.57619],[-81.40352,28.57578],[-81.40305,28.57578],[-81.40305,28.57537],[-81.40197,28.57552],[-81.40197,28.57577],[-81.40243,28.57576],[-81.40243,28.57593],[-81.40179,28.57593],[-81.40173,28.5803],[-81.40193,28.58039],[-81.40216,28.59102],[-81.39802,28.59107],[-81.39797,28.58834],[-81.39533,28.58838],[-81.39517,28.58745],[-81.39579,28.58744],[-81.39579,28.58766],[-81.39598,28.58766],[-81.39629,28.58765],[-81.39629,28.58743],[-81.39786,28.58741],[-81.39785,28.58686],[-81.3976,28.58686],[-81.39759,28.58647],[-81.39784,28.58646],[-81.39782,28.58561],[-81.39638,28.58562],[-81.39637,28.58516],[-81.39594,28.5852],[-81.39593,28.58468],[-81.39379,28.58497],[-81.39378,28.58458],[-81.39307,28.58522],[-81.39349,28.58588],[-81.39366,28.58662],[-81.39369,28.58837],[-81.39354,28.58856],[-81.39369,28.58859],[-81.39383,28.58965],[-81.39361,28.58965],[-81.39363,28.58998],[-81.38974,28.59002],[-81.38973,28.58934],[-81.38766,28.58937],[-81.38766,28.58923],[-81.37811,28.58941],[-81.37742,28.58883],[-81.37736,28.58454],[-81.37719,28.58454],[-81.3772,28.58469],[-81.37679,28.58469],[-81.37678,28.58436],[-81.37719,28.58436],[-81.37717,28.58323],[-81.3763,28.58338],[-81.37628,28.5823],[-81.37613,28.58231],[-81.37613,28.58283],[-81.37562,28.58284],[-81.37563,28.58583],[-81.37617,28.58724],[-81.37726,28.58834],[-81.37731,28.59125],[-81.37622,28.59125],[-81.37621,28.59086],[-81.37606,28.59086],[-81.37606,28.59125],[-81.37591,28.59125],[-81.3759,28.59086],[-81.37512,28.59086],[-81.37513,28.59125],[-81.37327,28.59124],[-81.37311,28.58594],[-81.37326,28.58594],[-81.37325,28.5854],[-81.37397,28.58548],[-81.37396,28.58503],[-81.37325,28.58503],[-81.37324,28.58486],[-81.37393,28.58469],[-81.37392,28.58436],[-81.37424,28.58436],[-81.37423,28.5839],[-81.37454,28.5839],[-81.37448,28.58344],[-81.37385,28.58344],[-81.37375,28.58265],[-81.37398,28.58265],[-81.37397,28.58234],[-81.37009,28.58233],[-81.3695,28.58182],[-81.36871,28.58233],[-81.35771,28.58224],[-81.3577,28.58178],[-81.35731,28.58121],[-81.35663,28.5816],[-81.35657,28.57861],[-81.35245,28.57866],[-81.35239,28.57502],[-81.35632,28.57498],[-81.3565,28.57461],[-81.35654,28.5736],[-81.35645,28.57134],[-81.36059,28.57129],[-81.36057,28.57028],[-81.35954,28.57006],[-81.3547,28.57013],[-81.3547,28.57029],[-81.35431,28.5703],[-81.35415,28.57014],[-81.35231,28.57017],[-81.35227,28.56789],[-81.35008,28.56792],[-81.35008,28.5682],[-81.34973,28.56821],[-81.34923,28.56821],[-81.34922,28.56793],[-81.34854,28.56793],[-81.34854,28.56822],[-81.34815,28.56824],[-81.34776,28.56813],[-81.34776,28.56794],[-81.34659,28.56795],[-81.34665,28.56871],[-81.346,28.56862],[-81.34601,28.56917],[-81.34557,28.56918],[-81.34556,28.56822],[-81.34453,28.56823],[-81.34453,28.56797],[-81.3439,28.56798],[-81.34385,28.56867],[-81.3434,28.56867],[-81.34338,28.56798],[-81.33992,28.56799],[-81.34008,28.57871],[-81.33312,28.57879],[-81.3331,28.57714],[-81.33173,28.57715],[-81.33171,28.57533],[-81.3246,28.57532],[-81.32465,28.58179],[-81.31948,28.58198],[-81.31523,28.58184],[-81.31508,28.5627],[-81.3154,28.5627],[-81.31555,28.56242],[-81.31554,28.56173],[-81.31601,28.56173],[-81.316,28.56155],[-81.31645,28.56126],[-81.31645,28.56102],[-81.31721,28.56059],[-81.31774,28.56007],[-81.31852,28.55846],[-81.32013,28.55844],[-81.32017,28.55803],[-81.32074,28.55802],[-81.32074,28.55775],[-81.32191,28.55757],[-81.32191,28.55746],[-81.3252,28.55742],[-81.3252,28.55714],[-81.32981,28.55705],[-81.32983,28.5556],[-81.32765,28.55562],[-81.32765,28.55605],[-81.32733,28.55605],[-81.32734,28.55573],[-81.32622,28.55574],[-81.32622,28.55537],[-81.32669,28.55536],[-81.32669,28.55523],[-81.32611,28.55523],[-81.32612,28.55486],[-81.32732,28.55485],[-81.32732,28.55434],[-81.32751,28.55434],[-81.32736,28.55354],[-81.322,28.55353],[-81.32364,28.5534],[-81.33577,28.55345],[-81.35204,28.55324],[-81.35213,28.55939],[-81.35167,28.56062],[-81.35177,28.56779],[-81.3547,28.56773],[-81.35519,28.56751],[-81.35518,28.56568],[-81.36445,28.56558],[-81.36444,28.56406],[-81.36508,28.56406],[-81.36497,28.55546],[-81.36506,28.55496],[-81.36548,28.55497],[-81.36549,28.55318],[-81.41393,28.5528],[-81.41408,28.55695],[-81.41556,28.5613],[-81.41568,28.56209],[-81.41563,28.56312],[-81.41497,28.56547],[-81.41482,28.56666],[-81.41501,28.56836],[-81.4161,28.57299],[-81.41641,28.57812],[-81.42874,28.57807],[-81.42874,28.5782],[-81.4294,28.5782],[-81.42941,28.57867],[-81.4297,28.57866],[-81.42969,28.5782],[-81.43065,28.57819],[-81.43069,28.57965],[-81.42944,28.57966],[-81.42947,28.58074],[-81.43072,28.58074],[-81.43075,28.58171],[-81.4309,28.58182],[-81.44329,28.58173],[-81.44324,28.58932],[-81.44616,28.5893],[-81.44618,28.59156],[-81.4475,28.59185],[-81.44732,28.5948],[-81.44943,28.59479],[-81.44942,28.59516],[-81.45127,28.59515],[-81.45126,28.59818],[-81.44999,28.59819],[-81.45004,28.60002],[-81.45131,28.60002],[-81.45136,28.60186],[-81.44639,28.60185],[-81.44643,28.60368],[-81.44951,28.60369],[-81.44956,28.60559],[-81.45142,28.6056],[-81.45144,28.60759],[-81.44961,28.60758],[-81.44972,28.61129],[-81.45031,28.6113],[-81.44769,28.6118],[-81.44768,28.61126],[-81.4464,28.61124],[-81.44629,28.60746],[-81.4384,28.60738],[-81.43847,28.60928],[-81.43645,28.60928],[-81.43643,28.60891],[-81.43487,28.60891],[-81.43522,28.60372],[-81.43189,28.60377],[-81.43161,28.60654],[-81.43135,28.60655],[-81.43137,28.60746],[-81.43307,28.60743],[-81.43313,28.60864],[-81.43347,28.60907],[-81.43465,28.60905],[-81.43441,28.61251],[-81.43227,28.61255],[-81.43241,28.61237],[-81.43224,28.61225],[-81.43196,28.61209],[-81.43182,28.61227],[-81.43153,28.6121],[-81.43146,28.61183],[-81.42703,28.60913],[-81.42614,28.61044],[-81.42259,28.61233],[-81.42332,28.61336],[-81.42299,28.61429],[-81.4198,28.61334],[-81.41832,28.61252],[-81.41694,28.61147],[-81.41693,28.61075],[-81.41911,28.61073],[-81.41912,28.61093],[-81.4216,28.61092],[-81.4219,28.61079],[-81.42178,28.60909],[-81.4235,28.60922],[-81.42364,28.60882],[-81.42394,28.60889],[-81.42416,28.60817],[-81.42465,28.60758],[-81.42257,28.606],[-81.42076,28.60414],[-81.42105,28.60391],[-81.42184,28.6039],[-81.42149,28.60323],[-81.42208,28.60321],[-81.422,28.60116],[-81.42016,28.60119],[-81.42002,28.60092],[-81.41877,28.60094],[-81.41778,28.59919],[-81.41873,28.59917],[-81.41872,28.59886],[-81.41767,28.59888],[-81.41725,28.59808],[-81.41665,28.59826],[-81.41737,28.59992],[-81.41721,28.60021],[-81.41764,28.60204],[-81.41675,28.60205],[-81.41679,28.60395],[-81.41472,28.60397],[-81.41472,28.60429],[-81.41414,28.60429],[-81.41415,28.60482],[-81.41068,28.60486],[-81.41059,28.60497],[-81.41058,28.60402],[-81.40767,28.60399],[-81.40751,28.60387],[-81.40777,28.60361],[-81.40766,28.60352],[-81.4074,28.60378],[-81.40374,28.60128],[-81.40425,28.60097],[-81.40417,28.60109],[-81.40468,28.60118],[-81.40473,28.60032],[-81.40417,28.60032],[-81.40434,28.59645],[-81.40913,28.5964],[-81.40915,28.59893],[-81.40951,28.59893],[-81.40952,28.60047],[-81.41055,28.60027]],[[-81.42281,28.59527],[-81.42275,28.59123],[-81.42687,28.5912],[-81.42687,28.589],[-81.42479,28.58901],[-81.42476,28.5862],[-81.42362,28.5862],[-81.42361,28.58546],[-81.42475,28.58545],[-81.42475,28.58529],[-81.42374,28.58529],[-81.42373,28.58474],[-81.42474,28.58474],[-81.4247,28.5818],[-81.42571,28.58174],[-81.42272,28.58175],[-81.42273,28.58534],[-81.41958,28.58536],[-81.41944,28.57824],[-81.41936,28.57921],[-81.41859,28.57921],[-81.41858,28.57877],[-81.41909,28.57876],[-81.41908,28.57825],[-81.41836,28.57825],[-81.41836,28.57867],[-81.41794,28.57867],[-81.41796,28.57913],[-81.41684,28.57914],[-81.41687,28.58005],[-81.41841,28.58004],[-81.41841,28.58039],[-81.41773,28.5804],[-81.41774,28.58176],[-81.41693,28.58177],[-81.41719,28.5895],[-81.41755,28.5904],[-81.41818,28.59134],[-81.41868,28.59107],[-81.41869,28.59193],[-81.41918,28.59268],[-81.42068,28.59267],[-81.42069,28.59445],[-81.41967,28.59452],[-81.41957,28.59487],[-81.42002,28.59473],[-81.42157,28.59472],[-81.42159,28.5962],[-81.42071,28.59621],[-81.42077,28.59638],[-81.42282,28.59636],[-81.42281,28.59527]],[[-81.3252,28.55782],[-81.3252,28.55769],[-81.32258,28.55772],[-81.32258,28.55786],[-81.32216,28.55787],[-81.32216,28.558],[-81.32059,28.5583],[-81.32059,28.55857],[-81.32017,28.55871],[-81.32017,28.55988],[-81.32029,28.56],[-81.31955,28.56053],[-81.3187,28.56063],[-81.31853,28.55984],[-81.31854,28.56026],[-81.31817,28.56027],[-81.31799,28.56064],[-81.31748,28.56065],[-81.31749,28.56113],[-81.31707,28.56113],[-81.31676,28.56142],[-81.31676,28.56171],[-81.31601,28.56192],[-81.31602,28.56283],[-81.31571,28.56283],[-81.31556,28.56325],[-81.31558,28.56448],[-81.32123,28.56441],[-81.32114,28.56074],[-81.32518,28.56067],[-81.3252,28.55782]],[[-81.41535,28.58642],[-81.41534,28.58551],[-81.41325,28.58536],[-81.41321,28.5837],[-81.41228,28.58371],[-81.41227,28.58354],[-81.4124,28.58354],[-81.41233,28.58091],[-81.41348,28.58087],[-81.41392,28.58114],[-81.41419,28.58159],[-81.41429,28.58],[-81.41523,28.57999],[-81.41523,28.57973],[-81.41051,28.57975],[-81.41047,28.57827],[-81.40718,28.57831],[-81.4073,28.57937],[-81.40762,28.58023],[-81.40997,28.58456],[-81.41016,28.58456],[-81.41028,28.58479],[-81.41083,28.58479],[-81.41091,28.58554],[-81.41314,28.58552],[-81.41382,28.58698],[-81.41503,28.58697],[-81.41502,28.58642],[-81.41535,28.58642]],[[-81.41887,28.59509],[-81.41897,28.59425],[-81.41878,28.59331],[-81.41833,28.59243],[-81.41761,28.59164],[-81.41581,28.59166],[-81.41581,28.59197],[-81.41406,28.59197],[-81.41572,28.59513],[-81.41725,28.59507],[-81.41726,28.59569],[-81.41799,28.59563],[-81.41887,28.59509]],[[-81.40744,28.57809],[-81.40743,28.57772],[-81.40805,28.57771],[-81.40805,28.57726],[-81.40856,28.57725],[-81.40848,28.57628],[-81.40828,28.57628],[-81.40826,28.57545],[-81.4085,28.57545],[-81.40856,28.57627],[-81.40909,28.57627],[-81.40912,28.57754],[-81.41001,28.57753],[-81.41006,28.57806],[-81.41001,28.57452],[-81.40802,28.57454],[-81.40803,28.57545],[-81.40772,28.57546],[-81.40772,28.57578],[-81.40753,28.57578],[-81.40754,28.57641],[-81.40774,28.57641],[-81.40774,28.57683],[-81.40758,28.57683],[-81.40758,28.57723],[-81.40718,28.57723],[-81.40718,28.57809],[-81.40744,28.57809]],[[-81.41536,28.59089],[-81.41535,28.58999],[-81.4149,28.58999],[-81.41461,28.58944],[-81.4146,28.58908],[-81.41484,28.58908],[-81.41484,28.58848],[-81.41331,28.5885],[-81.41331,28.58909],[-81.41255,28.5891],[-81.4135,28.59091],[-81.41536,28.59089]],[[-81.41422,28.5754],[-81.41423,28.57631],[-81.41601,28.5763],[-81.41588,28.57539],[-81.41422,28.5754]],[[-81.4126,28.58771],[-81.4123,28.58713],[-81.41152,28.58714],[-81.41196,28.58797],[-81.41274,28.58797],[-81.4126,28.58771]],[[-81.40296,28.56947],[-81.40276,28.56946],[-81.40331,28.57045],[-81.40374,28.57192],[-81.40391,28.57191],[-81.40355,28.57063],[-81.40296,28.56947]]],[[[-81.42064,28.58889],[-81.42062,28.58723],[-81.41961,28.58723],[-81.4196,28.58668],[-81.41863,28.58669],[-81.41861,28.5855],[-81.42261,28.58548],[-81.42265,28.58887],[-81.42064,28.58889]]],[[[-81.32668,28.55624],[-81.3278,28.55624],[-81.32779,28.55698],[-81.32667,28.55698],[-81.32668,28.55624]]],[[[-81.40885,28.60498],[-81.40886,28.60404],[-81.40948,28.60405],[-81.40949,28.60549],[-81.40885,28.60498]]],[[[-81.39396,28.58708],[-81.39439,28.58707],[-81.39439,28.58746],[-81.39471,28.58745],[-81.39471,28.58784],[-81.39396,28.58785],[-81.39396,28.58708]]],[[[-81.39425,28.58801],[-81.3944,28.588],[-81.3944,28.58877],[-81.39397,28.58878],[-81.39397,28.58801],[-81.39425,28.58801]]],[[[-81.37691,28.58593],[-81.37722,28.58593],[-81.37723,28.58671],[-81.37676,28.58671],[-81.37691,28.58593]]],[[[-81.37623,28.59176],[-81.37622,28.59138],[-81.377,28.59138],[-81.37701,28.59176],[-81.37623,28.59176]]],[[[-81.40276,28.57785],[-81.40292,28.57785],[-81.40292,28.57815],[-81.402,28.57813],[-81.402,28.57786],[-81.40276,28.57785]]],[[[-81.37744,28.58972],[-81.37744,28.58957],[-81.37788,28.58995],[-81.37788,28.59018],[-81.37745,28.59019],[-81.37744,28.58972]]],[[[-81.40416,28.57515],[-81.40456,28.57514],[-81.40465,28.57546],[-81.4043,28.5756],[-81.40416,28.57515]]]]}},{"type":"Feature","properties":{"distrito":"1","fuente":"orlando_distritos"},"geometry":{"type":"MultiPolygon","coordinates":[[[[-81.29154,28.48246],[-81.29154,28.48172],[-81.29056,28.48173],[-81.29056,28.48114],[-81.29016,28.48114],[-81.29015,28.48073],[-81.29154,28.48081],[-81.29151,28.47714],[-81.28936,28.47716],[-81.28938,28.48074],[-81.28714,28.48076],[-81.28713,28.47969],[-81.2864,28.4797],[-81.28636,28.47893],[-81.28739,28.47892],[-81.28617,28.47779],[-81.28633,28.47804],[-81.28591,28.4784],[-81.28591,28.47894],[-81.28551,28.47894],[-81.28551,28.47749],[-81.28573,28.47741],[-81.28525,28.47674],[-81.28524,28.47527],[-81.28355,28.47528],[-81.28095,28.47294],[-81.28523,28.47292],[-81.28522,28.47249],[-81.28055,28.47251],[-81.27858,28.46983],[-81.28521,28.46988],[-81.28519,28.46668],[-81.27665,28.4667],[-81.27641,28.46618],[-81.27618,28.46618],[-81.27434,28.4634],[-81.27704,28.46342],[-81.27702,28.4587],[-81.27123,28.45869],[-81.27045,28.45752],[-81.27701,28.45752],[-81.277,28.45555],[-81.27402,28.45555],[-81.27298,28.45399],[-81.26812,28.45399],[-81.267,28.45203],[-81.26683,28.45203],[-81.26526,28.44965],[-81.26814,28.44896],[-81.26872,28.44896],[-81.26871,28.44813],[-81.26347,28.44747],[-81.26083,28.44809],[-81.26067,28.44796],[-81.26067,28.44814],[-81.25877,28.44818],[-81.25625,28.44851],[-81.25242,28.44959],[-81.25241,28.44945],[-81.25226,28.44964],[-81.25103,28.45003],[-81.2485,28.45064],[-81.2459,28.45091],[-81.24248,28.45094],[-81.23134,28.44611],[-81.22951,28.4338],[-81.22771,28.41972],[-81.22774,28.41711],[-81.22822,28.41474],[-81.24314,28.41474],[-81.24326,28.41083],[-81.24363,28.40891],[-81.24384,28.40895],[-81.2439,28.40868],[-81.24369,28.40864],[-81.24449,28.40384],[-81.24431,28.40392],[-81.24432,28.40312],[-81.24466,28.40298],[-81.24492,28.40156],[-81.24492,28.39826],[-81.24469,28.39826],[-81.24435,28.39523],[-81.2445,28.37814],[-81.24472,28.37806],[-81.24464,28.37546],[-81.24452,28.37546],[-81.24456,28.36474],[-81.2443,28.36274],[-81.24341,28.36024],[-81.24197,28.35799],[-81.23595,28.35191],[-81.23595,28.35175],[-81.23228,28.34827],[-81.24003,28.34826],[-81.24002,28.34812],[-81.24419,28.3481],[-81.29293,28.34808],[-81.29297,28.35233],[-81.28477,28.35273],[-81.28478,28.35453],[-81.29308,28.35412],[-81.29316,28.3613],[-81.29423,28.3613],[-81.29425,28.36212],[-81.30159,28.36215],[-81.30157,28.36129],[-81.30555,28.36129],[-81.30557,28.36214],[-81.30576,28.36214],[-81.3057,28.35958],[-81.30671,28.35958],[-81.30661,28.35584],[-81.30961,28.35584],[-81.30969,28.35941],[-81.30769,28.35942],[-81.30773,28.36128],[-81.30973,28.36128],[-81.30931,28.38008],[-81.30743,28.38008],[-81.30745,28.38105],[-81.30932,28.38106],[-81.30944,28.38386],[-81.30976,28.38486],[-81.30975,28.38556],[-81.31056,28.38557],[-81.31169,28.38602],[-81.31356,28.38624],[-81.31467,28.38662],[-81.32375,28.39307],[-81.32847,28.39587],[-81.33143,28.3968],[-81.33214,28.3972],[-81.33264,28.39769],[-81.33306,28.39854],[-81.33337,28.40103],[-81.33364,28.40189],[-81.33537,28.4049],[-81.34267,28.41173],[-81.34267,28.41149],[-81.33575,28.4051],[-81.3337,28.40157],[-81.33502,28.40157],[-81.33541,28.40185],[-81.34271,28.4019],[-81.35515,28.40145],[-81.35515,28.40365],[-81.37109,28.40368],[-81.37281,28.40424],[-81.37371,28.40481],[-81.37371,28.40514],[-81.37409,28.40514],[-81.37453,28.40564],[-81.37449,28.40619],[-81.37411,28.40696],[-81.37434,28.40696],[-81.37401,28.41205],[-81.37307,28.41428],[-81.37288,28.41424],[-81.37161,28.41752],[-81.37156,28.41793],[-81.37354,28.41792],[-81.37242,28.42157],[-81.36839,28.42158],[-81.36839,28.42136],[-81.36616,28.42137],[-81.36616,28.42082],[-81.36569,28.42082],[-81.36551,28.42096],[-81.36551,28.42137],[-81.35958,28.42139],[-81.35958,28.42161],[-81.35069,28.4216],[-81.35017,28.42057],[-81.34767,28.41715],[-81.34768,28.41826],[-81.35001,28.42146],[-81.3487,28.42146],[-81.34845,28.42115],[-81.34769,28.42115],[-81.3477,28.42165],[-81.34901,28.42165],[-81.34901,28.42342],[-81.34732,28.42342],[-81.34732,28.42431],[-81.34695,28.42431],[-81.34696,28.42706],[-81.349,28.42707],[-81.34903,28.42901],[-81.35212,28.42901],[-81.35212,28.43078],[-81.35314,28.43077],[-81.35316,28.43276],[-81.35626,28.43274],[-81.35625,28.43081],[-81.3578,28.43082],[-81.35779,28.42992],[-81.35879,28.42993],[-81.35878,28.42902],[-81.35897,28.42903],[-81.35897,28.42993],[-81.35933,28.42993],[-81.35934,28.43278],[-81.36362,28.43275],[-81.36363,28.43374],[-81.36457,28.43373],[-81.3646,28.43635],[-81.36733,28.43641],[-81.36729,28.43741],[-81.36709,28.43811],[-81.36634,28.43824],[-81.3657,28.43807],[-81.3646,28.43728],[-81.36381,28.43718],[-81.3638,28.43607],[-81.36286,28.43607],[-81.36285,28.43454],[-81.35935,28.43456],[-81.35936,28.43608],[-81.35108,28.43611],[-81.35111,28.44014],[-81.347,28.44021],[-81.34707,28.44258],[-81.3477,28.44376],[-81.34836,28.4443],[-81.34939,28.44463],[-81.35011,28.44465],[-81.35112,28.44437],[-81.35109,28.44959],[-81.34912,28.44985],[-81.34913,28.44843],[-81.34953,28.44738],[-81.34746,28.44733],[-81.34745,28.44606],[-81.34772,28.44598],[-81.34772,28.44574],[-81.34915,28.44535],[-81.34902,28.44523],[-81.34704,28.44578],[-81.34707,28.44976],[-81.34604,28.44979],[-81.34603,28.44748],[-81.34296,28.44751],[-81.34297,28.44981],[-81.3423,28.44999],[-81.33927,28.45002],[-81.33904,28.44981],[-81.33866,28.44981],[-81.33847,28.44999],[-81.33501,28.45028],[-81.33501,28.45106],[-81.33086,28.45131],[-81.29638,28.45126],[-81.29656,28.45167],[-81.29628,28.45354],[-81.29688,28.45447],[-81.29647,28.45502],[-81.29632,28.45551],[-81.29578,28.45741],[-81.29574,28.45848],[-81.29612,28.45998],[-81.2963,28.46267],[-81.29705,28.46486],[-81.29717,28.46608],[-81.30178,28.46612],[-81.30182,28.47207],[-81.29963,28.47281],[-81.2988,28.47274],[-81.2979,28.47243],[-81.2977,28.47337],[-81.29562,28.47338],[-81.29564,28.47712],[-81.2925,28.47713],[-81.29252,28.4808],[-81.2935,28.48079],[-81.2935,28.48186],[-81.2929,28.48187],[-81.29285,28.48245],[-81.29154,28.48246]],[[-81.26891,28.42201],[-81.26876,28.42201],[-81.26875,28.42228],[-81.26891,28.42228],[-81.26891,28.42201]]],[[[-81.17805,28.45073],[-81.17359,28.45076],[-81.17236,28.45017],[-81.17113,28.44998],[-81.17112,28.44986],[-81.16998,28.44986],[-81.16813,28.45078],[-81.16237,28.45077],[-81.16112,28.45052],[-81.16111,28.44757],[-81.1616,28.4477],[-81.16205,28.44725],[-81.16142,28.44655],[-81.15987,28.44656],[-81.15987,28.44747],[-81.1594,28.44783],[-81.15788,28.45037],[-81.15645,28.45036],[-81.15644,28.45058],[-81.15596,28.45058],[-81.15599,28.45071],[-81.14368,28.45064],[-81.14169,28.45025],[-81.14169,28.45042],[-81.1408,28.45058],[-81.12415,28.4504],[-81.12785,28.44746],[-81.13001,28.44412],[-81.13497,28.4433],[-81.13655,28.44118],[-81.13664,28.43807],[-81.1387,28.43301],[-81.13602,28.42868],[-81.139,28.42583],[-81.13561,28.40755],[-81.14443,28.40751],[-81.14443,28.40095],[-81.14617,28.39772],[-81.16095,28.39468],[-81.16105,28.42538],[-81.16803,28.42534],[-81.16772,28.42564],[-81.16897,28.42564],[-81.16969,28.42491],[-81.1697,28.42545],[-81.17387,28.42201],[-81.19432,28.4219],[-81.19455,28.42921],[-81.20073,28.43194],[-81.20063,28.42555],[-81.20475,28.42556],[-81.2047,28.42189],[-81.21044,28.42181],[-81.21127,28.42114],[-81.21242,28.41859],[-81.2193,28.41467],[-81.2192,28.41824],[-81.21752,28.41824],[-81.22014,28.42155],[-81.22194,28.42155],[-81.22261,28.42117],[-81.22348,28.42115],[-81.22442,28.42159],[-81.22494,28.42262],[-81.22687,28.42262],[-81.22664,28.42362],[-81.2254,28.42606],[-81.22546,28.42809],[-81.22778,28.42805],[-81.22899,28.43706],[-81.228,28.43716],[-81.22883,28.43932],[-81.22928,28.43927],[-81.22958,28.44282],[-81.22867,28.44287],[-81.22877,28.44412],[-81.22903,28.44444],[-81.22907,28.44494],[-81.22953,28.44514],[-81.22617,28.4497],[-81.22663,28.45005],[-81.22589,28.45073],[-81.22443,28.45098],[-81.22442,28.45057],[-81.22193,28.45058],[-81.22194,28.451],[-81.2214,28.45101],[-81.21759,28.45032],[-81.21355,28.4511],[-81.17804,28.45128],[-81.17805,28.45073]],[[-81.21023,28.43448],[-81.20988,28.43461],[-81.21014,28.43517],[-81.21049,28.43504],[-81.21023,28.43448]]],[[[-81.2442,28.49548],[-81.24421,28.49366],[-81.24379,28.49367],[-81.2436,28.49216],[-81.24405,28.49165],[-81.24405,28.48787],[-81.24285,28.48697],[-81.24258,28.48692],[-81.24012,28.47807],[-81.23805,28.47784],[-81.2394,28.48062],[-81.23872,28.48062],[-81.23921,28.48257],[-81.24015,28.48238],[-81.24023,28.48257],[-81.24186,28.48956],[-81.23137,28.4896],[-81.23085,28.48822],[-81.23174,28.48822],[-81.23175,28.48457],[-81.22949,28.48458],[-81.22871,28.48309],[-81.22761,28.48199],[-81.22764,28.46223],[-81.23265,28.4622],[-81.23643,28.46915],[-81.23731,28.47114],[-81.23763,28.47217],[-81.23718,28.47226],[-81.23759,28.47387],[-81.23796,28.47379],[-81.23809,28.47467],[-81.23803,28.47732],[-81.23995,28.47741],[-81.23845,28.47164],[-81.23792,28.47016],[-81.23836,28.47002],[-81.23743,28.46812],[-81.23701,28.4683],[-81.23481,28.4642],[-81.23529,28.46399],[-81.23287,28.45953],[-81.23214,28.45758],[-81.23172,28.45768],[-81.23136,28.45522],[-81.23148,28.45468],[-81.23202,28.45467],[-81.23202,28.45368],[-81.23153,28.45356],[-81.23164,28.45304],[-81.23226,28.45225],[-81.2332,28.45188],[-81.23358,28.45195],[-81.23359,28.45257],[-81.23494,28.45256],[-81.23493,28.45188],[-81.24567,28.45174],[-81.24858,28.45147],[-81.25066,28.45101],[-81.25549,28.44953],[-81.25839,28.44904],[-81.26067,28.44896],[-81.26067,28.44911],[-81.26083,28.44899],[-81.26487,28.44962],[-81.26789,28.45399],[-81.26761,28.45399],[-81.26894,28.45596],[-81.26433,28.45595],[-81.26459,28.45635],[-81.2692,28.45635],[-81.26997,28.45713],[-81.26511,28.45713],[-81.26536,28.45752],[-81.27023,28.45753],[-81.27101,28.4587],[-81.27075,28.4587],[-81.27101,28.45909],[-81.27127,28.45909],[-81.27658,28.46715],[-81.27293,28.46716],[-81.27299,28.4808],[-81.26069,28.48081],[-81.26071,28.48811],[-81.2585,28.48813],[-81.25851,28.4915],[-81.26072,28.49149],[-81.26072,28.49542],[-81.2442,28.49548]]],[[[-81.15855,28.5013],[-81.15854,28.49586],[-81.14465,28.49589],[-81.14451,28.48858],[-81.14455,28.46667],[-81.16023,28.46662],[-81.1602,28.45473],[-81.16036,28.45448],[-81.16038,28.45313],[-81.16113,28.45312],[-81.16154,28.45463],[-81.16197,28.45541],[-81.16404,28.45702],[-81.16692,28.46055],[-81.16762,28.46118],[-81.16867,28.46174],[-81.16985,28.46202],[-81.17244,28.46183],[-81.17355,28.46196],[-81.17354,28.46008],[-81.17333,28.45912],[-81.17279,28.45821],[-81.17146,28.4569],[-81.17097,28.45599],[-81.17087,28.45512],[-81.17112,28.45415],[-81.17203,28.45286],[-81.17337,28.4522],[-81.17804,28.45211],[-81.17799,28.46657],[-81.18625,28.46654],[-81.18621,28.49577],[-81.17793,28.4958],[-81.17793,28.49634],[-81.16966,28.49636],[-81.16966,28.49549],[-81.16715,28.49555],[-81.16623,28.49585],[-81.16122,28.49585],[-81.16123,28.50297],[-81.16019,28.50398],[-81.15946,28.5034],[-81.15897,28.50277],[-81.15863,28.50195],[-81.15855,28.5013]]],[[[-81.1581,28.39527],[-81.15604,28.38922],[-81.15384,28.38152],[-81.1542,28.37832],[-81.14687,28.37832],[-81.14686,28.37207],[-81.14234,28.37207],[-81.14234,28.37833],[-81.12794,28.37833],[-81.12777,28.34835],[-81.16078,28.34853],[-81.16092,28.37831],[-81.16615,28.37828],[-81.16617,28.37927],[-81.1686,28.37929],[-81.16838,28.38101],[-81.16691,28.38396],[-81.16693,28.3847],[-81.16731,28.38536],[-81.16534,28.38639],[-81.16651,28.38767],[-81.16848,28.38665],[-81.17062,28.38902],[-81.16987,28.38974],[-81.16211,28.39402],[-81.16043,28.3948],[-81.1581,28.39527]]],[[[-81.21126,28.35241],[-81.21116,28.34824],[-81.23184,28.34814],[-81.23305,28.34932],[-81.23177,28.34932],[-81.23184,28.35179],[-81.21748,28.3518],[-81.21541,28.35237],[-81.21126,28.35241]]],[[[-81.24019,28.38903],[-81.23917,28.38901],[-81.2392,28.38536],[-81.23737,28.38536],[-81.23737,28.38445],[-81.23898,28.38447],[-81.239,28.38308],[-81.24292,28.38308],[-81.24292,28.38336],[-81.24427,28.38336],[-81.24427,28.38364],[-81.24252,28.38363],[-81.24252,28.38407],[-81.24427,28.38408],[-81.24411,28.39516],[-81.24226,28.39517],[-81.24226,28.39578],[-81.23809,28.39581],[-81.2381,28.39175],[-81.24016,28.39174],[-81.24019,28.38903]]],[[[-81.1697,28.46164],[-81.16851,28.46128],[-81.16767,28.46074],[-81.16434,28.45678],[-81.16248,28.45541],[-81.16197,28.45464],[-81.16146,28.45281],[-81.16554,28.45214],[-81.16699,28.45256],[-81.1688,28.45373],[-81.1703,28.45389],[-81.17054,28.45581],[-81.17087,28.45666],[-81.1726,28.45854],[-81.173,28.45928],[-81.17317,28.46004],[-81.17318,28.46133],[-81.17302,28.46147],[-81.17067,28.46169],[-81.1697,28.46164]]],[[[-81.35417,28.42883],[-81.35417,28.42709],[-81.35314,28.42708],[-81.35314,28.42526],[-81.35122,28.42525],[-81.35122,28.42432],[-81.35299,28.42433],[-81.35299,28.42354],[-81.35726,28.42355],[-81.35726,28.42336],[-81.35926,28.42241],[-81.35926,28.42344],[-81.35829,28.42344],[-81.35829,28.42711],[-81.35726,28.4271],[-81.35727,28.42885],[-81.35417,28.42883]]],[[[-81.24146,28.40909],[-81.23981,28.41007],[-81.23832,28.40912],[-81.23839,28.40832],[-81.23762,28.4084],[-81.23697,28.40794],[-81.23653,28.408],[-81.23649,28.4071],[-81.24406,28.40402],[-81.24286,28.41078],[-81.24202,28.41078],[-81.24236,28.40944],[-81.24146,28.40909]]],[[[-81.23859,28.37827],[-81.2443,28.37831],[-81.24428,28.38116],[-81.23857,28.38132],[-81.23859,28.37827]]],[[[-81.32614,28.38943],[-81.32821,28.38942],[-81.3283,28.39366],[-81.32695,28.39367],[-81.32693,28.39474],[-81.32621,28.3943],[-81.32614,28.38943]]],[[[-81.22529,28.41726],[-81.22506,28.41663],[-81.22484,28.41657],[-81.22464,28.41609],[-81.22464,28.4147],[-81.22725,28.41471],[-81.22677,28.4173],[-81.22586,28.41724],[-81.22579,28.41846],[-81.22556,28.41845],[-81.22529,28.41726]]],[[[-81.22652,28.41942],[-81.22672,28.4192],[-81.22704,28.42192],[-81.22693,28.42236],[-81.22625,28.42173],[-81.2252,28.4211],[-81.22543,28.42042],[-81.22601,28.4201],[-81.22652,28.41942]]],[[[-81.2276,28.48237],[-81.22847,28.48331],[-81.22914,28.48458],[-81.2276,28.48459],[-81.2276,28.48237]]],[[[-81.32787,28.39531],[-81.32787,28.39479],[-81.32764,28.39479],[-81.32763,28.39517],[-81.32703,28.3948],[-81.32704,28.39376],[-81.32848,28.39375],[-81.32846,28.39567],[-81.32787,28.39531]]],[[[-81.21513,28.41619],[-81.21517,28.41469],[-81.21776,28.4147],[-81.21513,28.41619]]],[[[-81.35726,28.42166],[-81.35926,28.42167],[-81.35926,28.42216],[-81.35726,28.42311],[-81.35726,28.42166]]],[[[-81.27948,28.47161],[-81.27976,28.47205],[-81.2762,28.47206],[-81.27619,28.47162],[-81.27948,28.47161]]],[[[-81.23358,28.35084],[-81.23458,28.35083],[-81.23556,28.35179],[-81.2336,28.35179],[-81.23358,28.35084]]],[[[-81.29369,28.48092],[-81.29467,28.48092],[-81.29467,28.48134],[-81.29369,28.48134],[-81.29369,28.48092]]],[[[-81.27391,28.46274],[-81.27357,28.46223],[-81.27458,28.46223],[-81.27458,28.46268],[-81.27391,28.46274]]],[[[-81.27319,28.46165],[-81.27426,28.46156],[-81.27426,28.4619],[-81.27335,28.4619],[-81.27319,28.46165]]],[[[-81.30892,28.35985],[-81.30891,28.35958],[-81.30969,28.35958],[-81.3097,28.35985],[-81.30892,28.35985]]]]}}]}